,ip,frequency,org,city,country,region,postal,hostname,location,timezone
0,54.39.130.200,513038,AS16276 OVH SAS,Montréal,CA,Quebec,H3A,ns572703.ip-54-39-130.net,"45.5040,-73.5747",America/Toronto
1,5.182.201.201,448390,AS197540 netcup GmbH,Berlin,DE,Berlin,10963,hosting.frachtwerk.de,"52.5003,13.3813",Europe/Berlin
2,172.25.0.3,179390,0,0,0,0,0,0,0,0
3,95.156.250.54,134006,AS199610 marbis GmbH,London,GB,England,EC1A,0,"51.5085,-0.1257",Europe/London
4,213.186.33.5,125511,AS16276 OVH SAS,Paris,FR,Île-de-France,75000,redirect.ovh.net,"48.8534,2.3488",Europe/Paris
5,46.251.234.89,124989,AS199610 marbis GmbH,London,GB,England,EC1A,0,"51.5085,-0.1257",Europe/London
6,164.90.185.34,97080,"AS14061 DigitalOcean, LLC",Frankfurt am Main,DE,Hesse,60311,0,"50.1155,8.6842",Europe/Berlin
7,45.237.108.30,91261,AS262481 NEOREDE TELECOMUNICAÇÃO EIRELI - EPP,Florianópolis,BR,Santa Catarina,88000-000,0,"-27.5967,-48.5492",America/Sao_Paulo
8,74.91.115.69,91037,"AS14586 Nuclearfallout Enterprises, Inc.",Clifton,US,New Jersey,07015,v-74-91-115-69.unman-vds.premium-chicago.nfoservers.com,"40.8584,-74.1638",America/New_York
9,104.153.105.250,86857,"AS14586 Nuclearfallout Enterprises, Inc.",Columbus,US,Ohio,43215,c-104-153-105-250.premium-chicago.nfoservers.com,"39.9612,-82.9988",America/New_York
10,54.36.118.81,85994,AS16276 OVH SAS,Roubaix,FR,Hauts-de-France,59051 CEDEX 1,0,"50.6942,3.1746",Europe/Paris
11,74.91.122.238,85621,"AS14586 Nuclearfallout Enterprises, Inc.",Chicago,US,Illinois,60666,c-74-91-122-238.premium-chicago.nfoservers.com,"41.8500,-87.6500",America/Chicago
12,103.200.23.21,83807,AS135905 VIETNAM POSTS AND TELECOMMUNICATIONS GROUP,Ho Chi Minh City,VN,Ho Chi Minh,71606,0,"10.8230,106.6296",Asia/Ho_Chi_Minh
13,95.156.220.75,78859,AS199610 marbis GmbH,Frankfurt am Main,DE,Hesse,60311,0,"50.1155,8.6842",Europe/Berlin
14,70.161.111.27,78087,AS22773 Cox Communications Inc.,Norfolk,US,Virginia,23514,ip70-161-111-27.hr.hr.cox.net,"36.8468,-76.2852",America/New_York
15,93.240.88.37,70849,AS3320 Deutsche Telekom AG,Weilheim,DE,Bavaria,82362,p5df05825.dip0.t-ipconnect.de,"47.8415,11.1548",Europe/Berlin
16,46.251.234.84,69496,AS199610 marbis GmbH,London,GB,England,EC1A,0,"51.5085,-0.1257",Europe/London
17,46.251.234.86,69257,AS199610 marbis GmbH,London,GB,England,EC1A,0,"51.5085,-0.1257",Europe/London
18,109.230.243.35,68654,AS199610 marbis GmbH,Miami,US,Florida,33102,0,"25.7743,-80.1937",America/New_York
19,45.129.33.149,68082,AS202425 IP Volume inc,Berngau,DE,Bavaria,92361,0,"49.2500,11.4000",Europe/Berlin
20,85.190.153.96,67677,AS199610 marbis GmbH,Miami,US,Florida,33102,0,"25.7743,-80.1937",America/New_York
21,45.129.33.145,67247,AS202425 IP Volume inc,Berngau,DE,Bavaria,92361,0,"49.2500,11.4000",Europe/Berlin
22,162.248.94.189,66291,"AS32751 Nuclearfallout Enterprises, Inc.",Concord,US,California,94522,lumsec.exophobian.com,"37.9780,-122.0311",America/Los_Angeles
23,5.62.127.243,65329,AS199610 marbis GmbH,Frankfurt am Main,DE,Hesse,60311,0,"50.1155,8.6842",Europe/Berlin
24,85.190.149.67,65057,AS199610 marbis GmbH,London,GB,England,EC1A,0,"51.5085,-0.1257",Europe/London
25,87.251.74.18,64553,AS204490 Kontel LLC,Moscow,RU,Moscow,101000,0,"55.7522,37.6156",Europe/Moscow
26,45.9.62.57,64431,AS197540 netcup GmbH,Münster,DE,North Rhine-Westphalia,48079,v220200532033117841.goodsrv.de,"51.9624,7.6257",Europe/Berlin
27,134.255.240.74,64162,AS199610 marbis GmbH,Miami,US,Florida,33102,0,"25.7743,-80.1937",America/New_York
28,47.242.30.38,64028,"AS45102 Alibaba (US) Technology Co., Ltd.",Beijing,CN,Beijing,0,0,"39.9075,116.3972",Asia/Shanghai
29,45.129.33.143,60680,AS202425 IP Volume inc,Berngau,DE,Bavaria,92361,0,"49.2500,11.4000",Europe/Berlin
30,94.102.49.159,60665,AS202425 IP Volume inc,Amsterdam,NL,North Holland,1012,scanner.openportstats.com,"52.3740,4.8897",Europe/Amsterdam
31,45.129.33.148,59973,AS202425 IP Volume inc,Berngau,DE,Bavaria,92361,0,"49.2500,11.4000",Europe/Berlin
32,94.102.53.112,59166,AS202425 IP Volume inc,Amsterdam,NL,North Holland,1012,scanner.openportstats.com,"52.3740,4.8897",Europe/Amsterdam
33,45.129.33.147,59158,AS202425 IP Volume inc,Berngau,DE,Bavaria,92361,0,"49.2500,11.4000",Europe/Berlin
34,103.200.23.169,58466,AS135905 VIETNAM POSTS AND TELECOMMUNICATIONS GROUP,Ho Chi Minh City,VN,Ho Chi Minh,71606,0,"10.8230,106.6296",Asia/Ho_Chi_Minh
35,185.26.115.135,58408,AS48287 JSC RU-CENTER,Moscow,RU,Moscow,101000,0,"55.7522,37.6156",Europe/Moscow
36,31.214.160.43,57785,AS199610 marbis GmbH,Karlsruhe,DE,Baden-Württemberg,76133,0,"49.0094,8.4044",Europe/Berlin
37,45.129.33.142,57638,AS202425 IP Volume inc,Berngau,DE,Bavaria,92361,0,"49.2500,11.4000",Europe/Berlin
38,194.26.25.118,57280,AS63018 Dedicated.com,Los Angeles,US,California,90009,0,"34.0522,-118.2437",America/Los_Angeles
39,45.129.33.141,56074,AS202425 IP Volume inc,Berngau,DE,Bavaria,92361,0,"49.2500,11.4000",Europe/Berlin
40,76.127.99.250,54346,"AS7922 Comcast Cable Communications, LLC",Stockton,US,California,95201,c-76-127-99-250.hsd1.ca.comcast.net,"37.9577,-121.2908",America/Los_Angeles
41,45.129.33.51,53475,AS202425 IP Volume inc,Berngau,DE,Bavaria,92361,0,"49.2500,11.4000",Europe/Berlin
42,95.156.220.80,53161,AS199610 marbis GmbH,Frankfurt am Main,DE,Hesse,60311,0,"50.1155,8.6842",Europe/Berlin
43,45.146.164.169,52051,AS49505 OOO Network of data-centers Selectel,Moscow,RU,Moscow,101000,0,"55.7522,37.6156",Europe/Moscow
44,45.159.7.16,49384,AS199610 marbis GmbH,London,GB,England,EC1A,0,"51.5085,-0.1257",Europe/London
45,85.190.149.136,47645,AS199610 marbis GmbH,London,GB,England,EC1A,0,"51.5085,-0.1257",Europe/London
46,45.129.33.144,46126,AS202425 IP Volume inc,Berngau,DE,Bavaria,92361,0,"49.2500,11.4000",Europe/Berlin
47,193.27.228.100,45081,AS49505 OOO Network of data-centers Selectel,Moscow,RU,Moscow,101000,0,"55.7522,37.6156",Europe/Moscow
48,45.129.33.2,45019,AS202425 IP Volume inc,Berngau,DE,Bavaria,92361,0,"49.2500,11.4000",Europe/Berlin
49,45.129.33.3,44615,AS202425 IP Volume inc,Berngau,DE,Bavaria,92361,0,"49.2500,11.4000",Europe/Berlin
50,166.170.222.13,44481,AS20057 AT&T Mobility LLC,Chicago,US,Illinois,60666,mobile-166-170-222-13.mycingular.net,"41.8500,-87.6500",America/Chicago
51,72.140.86.99,41021,AS812 Rogers Communications Canada Inc.,Toronto,CA,Ontario,M5N,cpe9050cab64c93-cm9050cab64c90.cpe.net.fido.ca,"43.7001,-79.4163",America/Toronto
52,45.129.33.153,40505,AS202425 IP Volume inc,Berngau,DE,Bavaria,92361,0,"49.2500,11.4000",Europe/Berlin
53,193.27.228.173,40080,AS49505 OOO Network of data-centers Selectel,Moscow,RU,Moscow,101000,0,"55.7522,37.6156",Europe/Moscow
54,193.27.228.174,40078,AS49505 OOO Network of data-centers Selectel,Moscow,RU,Moscow,101000,0,"55.7522,37.6156",Europe/Moscow
55,193.27.228.32,40071,AS49505 OOO Network of data-centers Selectel,Moscow,RU,Moscow,101000,0,"55.7522,37.6156",Europe/Moscow
56,193.27.228.130,40070,AS49505 OOO Network of data-centers Selectel,Moscow,RU,Moscow,101000,0,"55.7522,37.6156",Europe/Moscow
57,193.27.228.98,40050,AS49505 OOO Network of data-centers Selectel,Moscow,RU,Moscow,101000,0,"55.7522,37.6156",Europe/Moscow
58,45.145.66.96,40008,AS50340 OOO Network of data-centers Selectel,Moscow,RU,Moscow,101000,0,"55.7522,37.6156",Europe/Moscow
59,89.248.174.199,39886,AS202425 IP Volume inc,Amsterdam,NL,North Holland,1012,scanner.openportstats.com,"52.3740,4.8897",Europe/Amsterdam
60,193.27.228.172,39854,AS49505 OOO Network of data-centers Selectel,Moscow,RU,Moscow,101000,0,"55.7522,37.6156",Europe/Moscow
61,80.82.65.60,39755,AS202425 IP Volume inc,Amsterdam,NL,North Holland,1012,scanner.openportstats.com,"52.3740,4.8897",Europe/Amsterdam
62,149.56.17.122,39499,AS16276 OVH SAS,Montréal,CA,Quebec,H3A,kkk.bz,"45.5040,-73.5747",America/Toronto
63,85.190.157.56,38507,AS199610 marbis GmbH,Los Angeles,US,California,90009,0,"34.0522,-118.2437",America/Los_Angeles
64,72.221.122.25,37268,AS22773 Cox Communications Inc.,Providence,US,Rhode Island,02901,ip72-221-122-25.ri.ri.cox.net,"41.8240,-71.4128",America/New_York
65,45.129.33.101,36699,AS202425 IP Volume inc,Berngau,DE,Bavaria,92361,0,"49.2500,11.4000",Europe/Berlin
66,174.80.49.147,36098,AS20115 Charter Communications,Columbia,US,Tennessee,38401,174-080-049-147.res.spectrum.com,"35.6151,-87.0353",America/Chicago
67,45.129.33.24,35871,AS202425 IP Volume inc,Berngau,DE,Bavaria,92361,0,"49.2500,11.4000",Europe/Berlin
68,24.90.71.139,35849,AS12271 Charter Communications Inc,Fresh Meadows,US,New York,11355,cpe-24-90-71-139.nyc.res.rr.com,"40.7536,-73.8226",America/New_York
69,185.193.91.250,35796,AS44446 OOO SibirInvest,Odessa,UA,Odessa,65000,0,"46.4857,30.7438",Europe/Kiev
70,94.102.49.114,35201,AS202425 IP Volume inc,Amsterdam,NL,North Holland,1012,scanner.openportstats.com,"52.3740,4.8897",Europe/Amsterdam
71,195.54.160.85,35070,AS49505 OOO Network of data-centers Selectel,Saint Petersburg,RU,St.-Petersburg,190000,0,"59.9386,30.3141",Europe/Moscow
72,45.129.33.84,34623,AS202425 IP Volume inc,Berngau,DE,Bavaria,92361,0,"49.2500,11.4000",Europe/Berlin
73,45.129.33.13,34248,AS202425 IP Volume inc,Berngau,DE,Bavaria,92361,0,"49.2500,11.4000",Europe/Berlin
74,45.150.206.103,34035,AS35029 WebLine LTD,Moscow,RU,Moscow,119146,0,"55.7522,37.6156",Europe/Moscow
75,45.129.33.8,33710,AS202425 IP Volume inc,Berngau,DE,Bavaria,92361,0,"49.2500,11.4000",Europe/Berlin
76,45.129.33.10,33693,AS202425 IP Volume inc,Berngau,DE,Bavaria,92361,0,"49.2500,11.4000",Europe/Berlin
77,45.129.33.12,33684,AS202425 IP Volume inc,Berngau,DE,Bavaria,92361,0,"49.2500,11.4000",Europe/Berlin
78,45.129.33.82,33538,AS202425 IP Volume inc,Berngau,DE,Bavaria,92361,0,"49.2500,11.4000",Europe/Berlin
79,45.129.33.9,33372,AS202425 IP Volume inc,Berngau,DE,Bavaria,92361,0,"49.2500,11.4000",Europe/Berlin
80,45.129.33.15,33365,AS202425 IP Volume inc,Berngau,DE,Bavaria,92361,0,"49.2500,11.4000",Europe/Berlin
81,74.138.5.187,32881,AS10796 Charter Communications Inc,Louisville,US,Kentucky,40206,cpe-74-138-5-187.kya.res.rr.com,"38.2503,-85.7034",America/Kentucky/Louisville
82,45.129.33.129,31812,AS202425 IP Volume inc,Berngau,DE,Bavaria,92361,0,"49.2500,11.4000",Europe/Berlin
83,146.88.240.4,31555,"AS20052 Arbor Networks, Inc.",Southfield,US,Michigan,48086,www.arbor-observatory.com,"42.4734,-83.2219",America/Detroit
84,191.32.182.204,30859,AS18881 TELEFÔNICA BRASIL S.A,Vila Velha,BR,Espírito Santo,29100-000,191.32.182.204.dynamic.adsl.gvt.net.br,"-20.3297,-40.2925",America/Sao_Paulo
85,162.248.88.18,30858,"AS14586 Nuclearfallout Enterprises, Inc.",Chicago,US,Illinois,60666,v-162-248-88-18.unman-vds.premium-chicago.nfoservers.com,"41.8500,-87.6500",America/Chicago
86,85.190.157.58,30806,AS199610 marbis GmbH,Los Angeles,US,California,90009,0,"34.0522,-118.2437",America/Los_Angeles
87,71.156.76.189,30197,"AS7018 AT&T Services, Inc.",Johns Creek,US,Georgia,30022,71-156-76-189.lightspeed.tukrga.sbcglobal.net,"34.0289,-84.1986",America/New_York
88,195.54.161.225,30079,AS49505 OOO Network of data-centers Selectel,Moscow,RU,Moscow,101000,0,"55.7522,37.6156",Europe/Moscow
89,69.226.229.188,30046,"AS7018 AT&T Services, Inc.",Johns Creek,US,Georgia,30022,69-226-229-188.lightspeed.tukrga.sbcglobal.net,"34.0289,-84.1986",America/New_York
90,185.39.10.14,30000,AS62355 Network Dedicated SAS,Bogotá,CO,Bogota D.C.,111411,0,"4.6097,-74.0817",America/Bogota
91,80.82.77.132,29982,AS202425 IP Volume inc,Amsterdam,NL,North Holland,1012,scanner.openportstats.com,"52.3740,4.8897",Europe/Amsterdam
92,213.59.4.26,29922,AS8342 JSC RTComm.RU,Moscow,RU,Moscow,101000,0,"55.7522,37.6156",Europe/Moscow
93,68.82.197.159,29245,"AS33287 Comcast Cable Communications, LLC",Philadelphia,US,Pennsylvania,19099,c-68-82-197-159.hsd1.pa.comcast.net,"39.9523,-75.1638",America/New_York
94,74.129.56.97,28759,AS10796 Charter Communications Inc,Evansville,US,Indiana,47711,cpe-74-129-56-97.kya.res.rr.com,"38.0617,-87.5548",America/Chicago
95,45.129.33.100,28421,AS202425 IP Volume inc,Berngau,DE,Bavaria,92361,0,"49.2500,11.4000",Europe/Berlin
96,85.190.153.49,28265,AS199610 marbis GmbH,Miami,US,Florida,33102,0,"25.7743,-80.1937",America/New_York
97,45.129.33.6,26997,AS202425 IP Volume inc,Berngau,DE,Bavaria,92361,0,"49.2500,11.4000",Europe/Berlin
98,24.126.241.171,26815,"AS7725 Comcast Cable Communications, LLC",Atlanta,US,Georgia,30302,c-24-126-241-171.hsd1.ga.comcast.net,"33.7490,-84.3880",America/New_York
99,45.129.33.5,26583,AS202425 IP Volume inc,Berngau,DE,Bavaria,92361,0,"49.2500,11.4000",Europe/Berlin
100,83.97.20.35,26494,AS9009 M247 Ltd,Bucharest,RO,Bucureşti,020011,35.20.97.83.ro.ovo.sc,"44.4323,26.1063",Europe/Bucharest
101,24.193.174.36,26080,AS12271 Charter Communications Inc,Palisades Park,US,New Jersey,07650,cpe-24-193-174-36.nj.res.rr.com,"40.8482,-73.9976",America/New_York
102,193.27.229.196,26012,AS49505 OOO Network of data-centers Selectel,Saint Petersburg,RU,St.-Petersburg,190000,0,"59.9386,30.3141",Europe/Moscow
103,193.27.229.193,25964,AS49505 OOO Network of data-centers Selectel,Saint Petersburg,RU,St.-Petersburg,190000,0,"59.9386,30.3141",Europe/Moscow
104,193.27.229.195,25927,AS49505 OOO Network of data-centers Selectel,Saint Petersburg,RU,St.-Petersburg,190000,0,"59.9386,30.3141",Europe/Moscow
105,193.27.229.194,25920,AS49505 OOO Network of data-centers Selectel,Saint Petersburg,RU,St.-Petersburg,190000,0,"59.9386,30.3141",Europe/Moscow
106,193.27.229.192,25836,AS49505 OOO Network of data-centers Selectel,Saint Petersburg,RU,St.-Petersburg,190000,0,"59.9386,30.3141",Europe/Moscow
107,45.129.33.58,25819,AS202425 IP Volume inc,Berngau,DE,Bavaria,92361,0,"49.2500,11.4000",Europe/Berlin
108,88.214.24.77,25779,AS43350 NForce Entertainment B.V.,Amsterdam,NL,North Holland,1012,0,"52.3740,4.8897",Europe/Amsterdam
109,51.79.167.239,25518,AS16276 OVH SAS,Singapore,SG,Singapore,048508,vps-b5d315cb.vps.ovh.ca,"1.2897,103.8501",Asia/Singapore
110,72.80.147.170,25412,"AS701 MCI Communications Services, Inc. d/b/a Verizon Business",New York City,US,New York,10004,pool-72-80-147-170.nycmny.fios.verizon.net,"40.7143,-74.0060",America/New_York
111,185.132.53.18,24973,AS24961 myLoc managed IT AG,Düsseldorf,DE,North Rhine-Westphalia,40212,poweredvps.com,"51.2217,6.7762",Europe/Berlin
112,99.203.13.59,24965,AS10507 Sprint Personal Communications Systems,Lincoln,US,Nebraska,68510,ip-99-203-13-59.pools.spcsdns.net,"40.8000,-96.6670",America/Chicago
113,183.136.225.45,24917,AS58461 CT-HangZhou-IDC,Shanghai,CN,Shanghai,0,0,"31.2222,121.4581",Asia/Shanghai
114,85.190.159.254,24248,AS199610 marbis GmbH,Miami,US,Florida,33102,0,"25.7743,-80.1937",America/New_York
115,108.56.213.190,23931,"AS701 MCI Communications Services, Inc. d/b/a Verizon Business",Washington,US,"Washington, D.C.",20045,pool-108-56-213-190.washdc.fios.verizon.net,"38.8951,-77.0364",America/New_York
116,68.230.204.230,23722,AS22773 Cox Communications Inc.,Norfolk,US,Virginia,23514,ip68-230-204-230.rd.hr.cox.net,"36.8468,-76.2852",America/New_York
117,192.168.137.52,23297,0,0,0,0,0,0,0,0
118,95.156.209.123,23285,AS199610 marbis GmbH,Frankfurt am Main,DE,Hesse,60311,0,"50.1155,8.6842",Europe/Berlin
119,87.251.74.62,23077,AS204490 Kontel LLC,Moscow,RU,Moscow,101000,0,"55.7522,37.6156",Europe/Moscow
120,89.248.160.139,21967,AS202425 IP Volume inc,Amsterdam,NL,North Holland,1012,0,"52.3740,4.8897",Europe/Amsterdam
121,108.12.216.188,21912,"AS701 MCI Communications Services, Inc. d/b/a Verizon Business",Providence,US,Rhode Island,02901,pool-108-12-216-188.prvdri.fios.verizon.net,"41.8240,-71.4128",America/New_York
122,185.193.90.250,21729,0,Krasnoobsk,RU,Novosibirsk Oblast,630105,0,"54.8490,83.1072",Asia/Novosibirsk
123,109.230.214.196,21427,AS199610 marbis GmbH,Miami,US,Florida,33102,0,"25.7743,-80.1937",America/New_York
124,134.255.214.196,21278,AS199610 marbis GmbH,New York City,US,New York,10004,0,"40.7143,-74.0060",America/New_York
125,45.159.7.8,21200,AS199610 marbis GmbH,London,GB,England,EC1A,0,"51.5085,-0.1257",Europe/London
126,85.190.157.91,21124,AS199610 marbis GmbH,Los Angeles,US,California,90009,0,"34.0522,-118.2437",America/Los_Angeles
127,85.190.155.17,21061,AS199610 marbis GmbH,Frankfurt am Main,DE,Hesse,60311,0,"50.1155,8.6842",Europe/Berlin
128,98.240.16.31,20978,"AS7922 Comcast Cable Communications, LLC",Nashville,US,Tennessee,37219,c-98-240-16-31.hsd1.tn.comcast.net,"36.1659,-86.7844",America/Chicago
129,72.218.39.145,20923,AS22773 Cox Communications Inc.,Norfolk,US,Virginia,23514,ip72-218-39-145.hr.hr.cox.net,"36.8468,-76.2852",America/New_York
130,94.102.51.17,20874,AS202425 IP Volume inc,Amsterdam,NL,North Holland,1012,no-reverse-dns-configured.com,"52.3740,4.8897",Europe/Amsterdam
131,85.190.155.4,20855,AS199610 marbis GmbH,Frankfurt am Main,DE,Hesse,60311,0,"50.1155,8.6842",Europe/Berlin
132,45.129.33.57,20691,AS202425 IP Volume inc,Berngau,DE,Bavaria,92361,0,"49.2500,11.4000",Europe/Berlin
133,217.115.15.77,20582,AS31078 Alexej Senderkin,Berlin,DE,Berlin,10178,mm.sixtopia.net,"52.5244,13.4105",Europe/Berlin
134,69.73.34.26,20530,AS12083 WideOpenWest Finance LLC,Huntsville,US,Alabama,35804,user-69-73-34-26.knology.net,"34.7304,-86.5859",America/Chicago
135,194.26.25.127,20323,AS63018 Dedicated.com,Los Angeles,US,California,90009,0,"34.0522,-118.2437",America/Los_Angeles
136,45.129.33.122,20242,AS202425 IP Volume inc,Berngau,DE,Bavaria,92361,0,"49.2500,11.4000",Europe/Berlin
137,192.168.43.243,20088,0,0,0,0,0,0,0,0
138,85.190.156.86,19676,AS199610 marbis GmbH,Los Angeles,US,California,90009,0,"34.0522,-118.2437",America/Los_Angeles
139,85.190.157.208,19650,AS199610 marbis GmbH,Los Angeles,US,California,90009,0,"34.0522,-118.2437",America/Los_Angeles
140,98.213.177.91,19566,"AS7922 Comcast Cable Communications, LLC",Chicago,US,Illinois,60666,c-98-213-177-91.hsd1.il.comcast.net,"41.8500,-87.6500",America/Chicago
141,10.75.4.4,19510,0,0,0,0,0,0,0,0
142,45.129.33.154,18874,AS202425 IP Volume inc,Berngau,DE,Bavaria,92361,0,"49.2500,11.4000",Europe/Berlin
143,195.54.160.38,18846,AS49505 OOO Network of data-centers Selectel,Saint Petersburg,RU,St.-Petersburg,190000,0,"59.9386,30.3141",Europe/Moscow
144,71.181.59.47,18837,"AS209 CenturyLink Communications, LLC",Crestview,US,Florida,32536,0,"30.7621,-86.5705",America/Chicago
145,40.74.3.100,18629,AS8075 Microsoft Corporation,Amsterdam,NL,North Holland,1093,0,"52.3618,4.9280",Europe/Amsterdam
146,85.190.157.66,18602,AS199610 marbis GmbH,Los Angeles,US,California,90009,0,"34.0522,-118.2437",America/Los_Angeles
147,162.144.50.35,18486,AS46606 Unified Layer,Houston,US,Texas,77052,server.loganpaul.com,"29.7633,-95.3633",America/Chicago
148,24.16.183.119,18334,"AS33650 Comcast Cable Communications, LLC",Shoreline,US,Washington,98133,c-24-16-183-119.hsd1.wa.comcast.net,"47.7557,-122.3415",America/Los_Angeles
149,94.102.51.29,17783,AS202425 IP Volume inc,Amsterdam,NL,North Holland,1012,customer.fibre7.net,"52.3740,4.8897",Europe/Amsterdam
150,71.68.239.90,17564,AS11426 Charter Communications Inc,Columbia,US,South Carolina,29203,cpe-71-68-239-90.sc.res.rr.com,"34.0635,-81.0265",America/New_York
151,85.190.155.2,17171,AS199610 marbis GmbH,Frankfurt am Main,DE,Hesse,60311,0,"50.1155,8.6842",Europe/Berlin
152,24.202.253.39,16916,AS5769 Videotron Telecom Ltee,Ottawa,CA,Ontario,K1A,modemcable039.253-202-24.mc.videotron.ca,"45.4112,-75.6981",America/Toronto
153,45.129.33.14,16668,AS202425 IP Volume inc,Berngau,DE,Bavaria,92361,0,"49.2500,11.4000",Europe/Berlin
154,24.218.196.119,16624,"AS7015 Comcast Cable Communications, LLC",New Haven,US,Connecticut,06501,c-24-218-196-119.hsd1.ma.comcast.net,"41.3081,-72.9282",America/New_York
155,73.223.120.147,16413,"AS7922 Comcast Cable Communications, LLC",Fairfield,US,California,94533,c-73-223-120-147.hsd1.ca.comcast.net,"38.2494,-122.0400",America/Los_Angeles
156,185.175.93.14,16213,AS44446 OOO SibirInvest,Kyiv,UA,Kyiv City,03027,0,"50.4547,30.5238",Europe/Kiev
157,45.61.142.78,16050,AS213349 OctoSEC LTD,New York City,US,New York,10004,45-61-142-78.nyc.priv.octovpn.net,"40.7143,-74.0060",America/New_York
158,195.54.160.155,15955,AS49505 OOO Network of data-centers Selectel,Saint Petersburg,RU,St.-Petersburg,190000,0,"59.9386,30.3141",Europe/Moscow
159,85.190.157.155,15864,AS199610 marbis GmbH,Los Angeles,US,California,90009,0,"34.0522,-118.2437",America/Los_Angeles
160,51.161.12.231,15828,AS16276 OVH SAS,Montréal,CA,Quebec,H2W,ns570281.ip-51-161-12.net,"45.5088,-73.5878",America/Toronto
161,89.248.160.178,15811,AS202425 IP Volume inc,Amsterdam,NL,North Holland,1012,scanner.openportstats.com,"52.3740,4.8897",Europe/Amsterdam
162,134.255.240.48,15781,AS199610 marbis GmbH,Miami,US,Florida,33102,0,"25.7743,-80.1937",America/New_York
163,103.200.20.158,15671,AS135905 VIETNAM POSTS AND TELECOMMUNICATIONS GROUP,Ho Chi Minh City,VN,Ho Chi Minh,71606,0,"10.8230,106.6296",Asia/Ho_Chi_Minh
164,89.248.172.85,15557,AS202425 IP Volume inc,Amsterdam,NL,North Holland,1012,scanner.openportstats.com,"52.3740,4.8897",Europe/Amsterdam
165,192.99.250.208,15543,AS16276 OVH SAS,Montréal,CA,Quebec,H3B,montreal-game-1.octovpn.net,"45.5005,-73.5684",America/Toronto
166,70.114.67.11,15238,AS11427 Charter Communications Inc,Mesquite,US,Texas,75149,cpe-70-114-67-11.res.rr.com,"32.7668,-96.5992",America/Chicago
167,2.138.73.140,15207,AS3352 TELEFONICA DE ESPANA,Arrecife,ES,Canary Islands,35500,140.red-2-138-73.dynamicip.rima-tde.net,"28.9630,-13.5477",Atlantic/Canary
168,45.129.33.40,15205,AS202425 IP Volume inc,Berngau,DE,Bavaria,92361,0,"49.2500,11.4000",Europe/Berlin
169,45.146.164.85,15030,AS49505 OOO Network of data-centers Selectel,Moscow,RU,Moscow,101000,0,"55.7522,37.6156",Europe/Moscow
170,45.93.201.115,15028,AS50340 OOO Network of data-centers Selectel,Moscow,RU,Moscow,101000,0,"55.7522,37.6156",Europe/Moscow
171,172.18.0.3,15015,0,0,0,0,0,0,0,0
172,185.39.10.83,15001,AS62355 Network Dedicated SAS,Bogotá,CO,Bogota D.C.,111411,0,"4.6097,-74.0817",America/Bogota
173,185.39.10.63,15001,AS62355 Network Dedicated SAS,Bogotá,CO,Bogota D.C.,111411,0,"4.6097,-74.0817",America/Bogota
174,185.39.10.90,15001,AS62355 Network Dedicated SAS,Bogotá,CO,Bogota D.C.,111411,0,"4.6097,-74.0817",America/Bogota
175,94.102.57.187,15001,AS202425 IP Volume inc,Amsterdam,NL,North Holland,1012,0,"52.3740,4.8897",Europe/Amsterdam
176,94.102.57.177,15000,AS202425 IP Volume inc,Amsterdam,NL,North Holland,1012,0,"52.3740,4.8897",Europe/Amsterdam
177,94.102.57.152,15000,AS202425 IP Volume inc,Amsterdam,NL,North Holland,1012,jerene.valledommon.net,"52.3740,4.8897",Europe/Amsterdam
178,94.102.57.186,15000,AS202425 IP Volume inc,Amsterdam,NL,North Holland,1012,0,"52.3740,4.8897",Europe/Amsterdam
179,94.102.57.181,15000,AS202425 IP Volume inc,Amsterdam,NL,North Holland,1012,0,"52.3740,4.8897",Europe/Amsterdam
180,94.102.57.136,15000,AS202425 IP Volume inc,Amsterdam,NL,North Holland,1012,novoseltzev.collaboratemotivate.com,"52.3740,4.8897",Europe/Amsterdam
181,185.39.10.87,15000,AS62355 Network Dedicated SAS,Bogotá,CO,Bogota D.C.,111411,0,"4.6097,-74.0817",America/Bogota
182,94.102.57.188,15000,AS202425 IP Volume inc,Amsterdam,NL,North Holland,1012,0,"52.3740,4.8897",Europe/Amsterdam
183,185.39.10.84,15000,AS62355 Network Dedicated SAS,Bogotá,CO,Bogota D.C.,111411,0,"4.6097,-74.0817",America/Bogota
184,94.102.57.155,15000,AS202425 IP Volume inc,Amsterdam,NL,North Holland,1012,waegeneer.collaboratemotivate.com,"52.3740,4.8897",Europe/Amsterdam
185,94.102.49.3,15000,AS202425 IP Volume inc,Amsterdam,NL,North Holland,1012,no-reverse-dns-configured.com,"52.3740,4.8897",Europe/Amsterdam
186,80.82.65.187,15000,AS202425 IP Volume inc,Amsterdam,NL,North Holland,1012,no-reverse-dns-configured.com,"52.3740,4.8897",Europe/Amsterdam
187,94.102.57.172,14999,AS202425 IP Volume inc,Amsterdam,NL,North Holland,1012,0,"52.3740,4.8897",Europe/Amsterdam
188,80.82.78.188,14999,AS202425 IP Volume inc,Amsterdam,NL,North Holland,1012,no-reverse-dns-configured.com,"52.3740,4.8897",Europe/Amsterdam
189,94.102.57.153,14989,AS202425 IP Volume inc,Amsterdam,NL,North Holland,1012,zerkin.valledommon.net,"52.3740,4.8897",Europe/Amsterdam
190,93.174.93.26,14988,AS202425 IP Volume inc,Amsterdam,NL,North Holland,1012,no-reverse-dns-configured.com,"52.3740,4.8897",Europe/Amsterdam
191,45.129.33.47,14773,AS202425 IP Volume inc,Berngau,DE,Bavaria,92361,0,"49.2500,11.4000",Europe/Berlin
192,95.156.209.80,14728,AS199610 marbis GmbH,Frankfurt am Main,DE,Hesse,60311,0,"50.1155,8.6842",Europe/Berlin
193,23.92.23.97,14726,"AS63949 Linode, LLC",Newark,US,New Jersey,07175,nb-23-92-23-97.newark.nodebalancer.linode.com,"40.7357,-74.1724",America/New_York
194,94.102.57.179,14504,AS202425 IP Volume inc,Amsterdam,NL,North Holland,1012,0,"52.3740,4.8897",Europe/Amsterdam
195,85.190.159.36,14473,AS199610 marbis GmbH,Miami,US,Florida,33102,0,"25.7743,-80.1937",America/New_York
196,45.129.33.4,14406,AS202425 IP Volume inc,Berngau,DE,Bavaria,92361,0,"49.2500,11.4000",Europe/Berlin
197,69.132.188.195,14383,AS11426 Charter Communications Inc,Charlotte,US,North Carolina,28211,cpe-69-132-188-195.carolina.res.rr.com,"35.1677,-80.7932",America/New_York
198,138.99.216.171,14359,AS43350 NForce Entertainment B.V.,Krimpen aan den IJssel,NL,South Holland,2923,0,"51.9167,4.6028",Europe/Amsterdam
199,80.82.65.149,14115,AS202425 IP Volume inc,Amsterdam,NL,North Holland,1012,0,"52.3740,4.8897",Europe/Amsterdam
200,51.19.116.219,14052,AS5607 Sky UK Limited,Leicester,GB,England,LE1,0,"52.6386,-1.1317",Europe/London
201,67.247.112.61,13839,AS12271 Charter Communications Inc,East Harlem,US,New York,10029,cpe-67-247-112-61.nyc.res.rr.com,"40.7947,-73.9425",America/New_York
202,51.210.222.29,13815,AS16276 OVH SAS,Calais,FR,Hauts-de-France,62100,ns3178866.ip-51-210-222.eu,"50.9519,1.8563",Europe/Paris
203,134.255.240.160,13767,AS199610 marbis GmbH,Miami,US,Florida,33102,0,"25.7743,-80.1937",America/New_York
204,45.146.165.25,13608,AS49505 OOO Network of data-centers Selectel,Moscow,RU,Moscow,101000,0,"55.7522,37.6156",Europe/Moscow
205,117.25.184.90,13539,AS4134 CHINANET-BACKBONE,Hangzhou,CN,Zhejiang,0,0,"30.2936,120.1614",Asia/Shanghai
206,174.232.9.3,13409,AS22394 Cellco Partnership DBA Verizon Wireless,Cleveland,US,Ohio,44192,3.sub-174-232-9.myvzw.com,"41.4995,-81.6954",America/New_York
207,103.145.13.58,13337,AS213371 ABC Consultancy,Zwolle,NL,Overijssel,8035,0,"52.5538,6.1537",Europe/Amsterdam
208,87.251.74.205,13093,AS204490 Kontel LLC,Moscow,RU,Moscow,101000,0,"55.7522,37.6156",Europe/Moscow
209,85.190.155.14,13090,AS199610 marbis GmbH,Frankfurt am Main,DE,Hesse,60311,0,"50.1155,8.6842",Europe/Berlin
210,185.156.73.57,13063,AS44446 OOO SibirInvest,Novosibirsk,RU,Novosibirsk Oblast,630091,0,"55.0411,82.9344",Asia/Novosibirsk
211,96.27.220.108,13062,AS12083 WideOpenWest Finance LLC,Evansville,US,Indiana,47708,d27-96-108-220.evv.wideopenwest.com,"37.9748,-87.5559",America/Chicago
212,199.231.233.23,13014,"AS36231 Tempest Hosting, LLC",Independence,US,Missouri,64051,0,"39.0911,-94.4155",America/Chicago
213,99.140.85.90,12968,"AS7018 AT&T Services, Inc.",Mentor,US,Ohio,44061,99-140-85-90.lightspeed.bcvloh.sbcglobal.net,"41.6662,-81.3396",America/New_York
214,76.229.174.200,12641,"AS7018 AT&T Services, Inc.",Louisville,US,Kentucky,40259,76-229-174-200.lightspeed.lsvlky.sbcglobal.net,"38.2542,-85.7594",America/Kentucky/Louisville
215,151.242.57.186,12595,AS31549 Aria Shatel Company Ltd,Tehran,IR,Tehrān,0,151-242-57-186.shatel.ir,"35.6944,51.4215",Asia/Tehran
216,31.214.160.41,12370,AS199610 marbis GmbH,Karlsruhe,DE,Baden-Württemberg,76133,0,"49.0094,8.4044",Europe/Berlin
217,51.161.98.213,12333,AS16276 OVH SAS,Montréal,CA,Quebec,H3A,ovh-ca1.ddosfiltering.net,"45.5040,-73.5747",America/Toronto
218,54.39.102.187,12272,AS16276 OVH SAS,Montréal,CA,Quebec,H3A,ns561076.ip-54-39-102.net,"45.5040,-73.5747",America/Toronto
219,10.72.2.22,12258,0,0,0,0,0,0,0,0
220,85.190.155.29,11990,AS199610 marbis GmbH,Frankfurt am Main,DE,Hesse,60311,0,"50.1155,8.6842",Europe/Berlin
221,31.214.160.44,11956,AS199610 marbis GmbH,Karlsruhe,DE,Baden-Württemberg,76133,0,"49.0094,8.4044",Europe/Berlin
222,45.129.33.81,11926,AS202425 IP Volume inc,Berngau,DE,Bavaria,92361,0,"49.2500,11.4000",Europe/Berlin
223,5.182.173.11,11861,AS60609 APFUTURA INTERNACIONAL SOLUCIONES SL,Girona,ES,Catalonia,17001,0,"41.9831,2.8249",Europe/Madrid
224,98.209.147.237,11809,"AS7922 Comcast Cable Communications, LLC",Dearborn,US,Michigan,48120,c-98-209-147-237.hsd1.mi.comcast.net,"42.3223,-83.1763",America/Detroit
225,24.182.189.47,11753,AS20115 Charter Communications,Saint Peters,US,Missouri,63376,024-182-189-047.res.spectrum.com,"38.8003,-90.6265",America/Chicago
226,45.146.164.229,11526,AS49505 OOO Network of data-centers Selectel,Moscow,RU,Moscow,101000,0,"55.7522,37.6156",Europe/Moscow
227,91.213.50.137,11503,AS50340 OOO Network of data-centers Selectel,Moscow,RU,Moscow,101000,0,"55.7522,37.6156",Europe/Moscow
228,91.213.50.139,11485,AS50340 OOO Network of data-centers Selectel,Moscow,RU,Moscow,101000,0,"55.7522,37.6156",Europe/Moscow
229,91.213.50.138,11452,AS50340 OOO Network of data-centers Selectel,Moscow,RU,Moscow,101000,0,"55.7522,37.6156",Europe/Moscow
230,45.146.165.205,11416,AS49505 OOO Network of data-centers Selectel,Moscow,RU,Moscow,101000,0,"55.7522,37.6156",Europe/Moscow
231,91.213.50.87,11409,AS50340 OOO Network of data-centers Selectel,Moscow,RU,Moscow,101000,0,"55.7522,37.6156",Europe/Moscow
232,91.213.50.136,11387,AS50340 OOO Network of data-centers Selectel,Moscow,RU,Moscow,101000,0,"55.7522,37.6156",Europe/Moscow
233,91.213.50.135,11351,AS50340 OOO Network of data-centers Selectel,Moscow,RU,Moscow,101000,0,"55.7522,37.6156",Europe/Moscow
234,91.213.50.90,11332,AS50340 OOO Network of data-centers Selectel,Moscow,RU,Moscow,101000,0,"55.7522,37.6156",Europe/Moscow
235,91.213.50.88,11329,AS50340 OOO Network of data-centers Selectel,Moscow,RU,Moscow,101000,0,"55.7522,37.6156",Europe/Moscow
236,91.213.50.89,11271,AS50340 OOO Network of data-centers Selectel,Moscow,RU,Moscow,101000,0,"55.7522,37.6156",Europe/Moscow
237,85.190.153.177,11245,AS199610 marbis GmbH,Miami,US,Florida,33102,0,"25.7743,-80.1937",America/New_York
238,24.189.29.126,11165,AS6128 Cablevision Systems Corp.,New York City,US,New York,10004,ool-18bd1d7e.dyn.optonline.net,"40.7143,-74.0060",America/New_York
239,184.101.146.101,11115,"AS209 CenturyLink Communications, LLC",Phoenix,US,Arizona,85001,184-101-146-101.phnx.qwest.net,"33.4484,-112.0740",America/Phoenix
240,5.101.166.85,11097,AS199610 marbis GmbH,Frankfurt am Main,DE,Hesse,60311,0,"50.1155,8.6842",Europe/Berlin
241,89.248.167.141,10923,AS202425 IP Volume inc,Amsterdam,NL,North Holland,1012,scanner.openportstats.com,"52.3740,4.8897",Europe/Amsterdam
242,80.82.65.74,10744,AS202425 IP Volume inc,Amsterdam,NL,North Holland,1012,scanner.openportstats.com,"52.3740,4.8897",Europe/Amsterdam
243,68.33.47.63,10553,"AS33657 Comcast Cable Communications, LLC",Baltimore,US,Maryland,21201,c-68-33-47-63.hsd1.dc.comcast.net,"39.2904,-76.6122",America/New_York
244,98.167.33.23,10472,AS22773 Cox Communications Inc.,Las Vegas,US,Nevada,89111,ip98-167-33-23.lv.lv.cox.net,"36.1750,-115.1372",America/Los_Angeles
245,45.129.33.120,10467,AS202425 IP Volume inc,Berngau,DE,Bavaria,92361,0,"49.2500,11.4000",Europe/Berlin
246,193.27.228.154,10379,AS49505 OOO Network of data-centers Selectel,Moscow,RU,Moscow,101000,0,"55.7522,37.6156",Europe/Moscow
247,83.97.20.31,10294,AS9009 M247 Ltd,Bucharest,RO,Bucureşti,020011,31.20.97.83.ro.ovo.sc,"44.4323,26.1063",Europe/Bucharest
248,193.27.228.156,10262,AS49505 OOO Network of data-centers Selectel,Moscow,RU,Moscow,101000,0,"55.7522,37.6156",Europe/Moscow
249,79.137.42.24,10258,AS16276 OVH SAS,Strasbourg,FR,Grand Est,67000,ns3070692.ip-79-137-42.eu,"48.5839,7.7455",Europe/Paris
250,89.248.165.5,10231,AS202425 IP Volume inc,Amsterdam,NL,North Holland,1012,0,"52.3740,4.8897",Europe/Amsterdam
251,97.85.103.95,10228,AS20115 Charter Communications,Leeds,US,Alabama,35094,097-085-103-095.res.spectrum.com,"33.5482,-86.5444",America/Chicago
252,134.209.88.45,10216,"AS14061 DigitalOcean, LLC",Amsterdam,NL,North Holland,1012,puregreen.coffee,"52.3740,4.8897",Europe/Amsterdam
253,147.10.225.119,10214,AS135887 Belong  (Telstra Corporation),Melbourne,AU,Victoria,3000,static.belong.com.au,"-37.8140,144.9633",Australia/Melbourne
254,89.248.172.196,10120,AS202425 IP Volume inc,Amsterdam,NL,North Holland,1012,scanner.openportstats.com,"52.3740,4.8897",Europe/Amsterdam
255,70.238.250.211,10111,"AS7018 AT&T Services, Inc.",Chicago,US,Illinois,60666,70-238-250-211.lightspeed.cicril.sbcglobal.net,"41.8500,-87.6500",America/Chicago
256,195.54.160.228,10061,AS49505 OOO Network of data-centers Selectel,Saint Petersburg,RU,St.-Petersburg,190000,0,"59.9386,30.3141",Europe/Moscow
257,76.110.21.32,10027,"AS7922 Comcast Cable Communications, LLC",West Palm Beach,US,Florida,33402,c-76-110-21-32.hsd1.fl.comcast.net,"26.7153,-80.0534",America/New_York
258,94.102.57.180,10013,AS202425 IP Volume inc,Amsterdam,NL,North Holland,1012,0,"52.3740,4.8897",Europe/Amsterdam
259,185.39.10.91,10002,AS62355 Network Dedicated SAS,Bogotá,CO,Bogota D.C.,111411,0,"4.6097,-74.0817",America/Bogota
260,94.102.57.185,10001,AS202425 IP Volume inc,Amsterdam,NL,North Holland,1012,0,"52.3740,4.8897",Europe/Amsterdam
261,94.102.57.178,10001,AS202425 IP Volume inc,Amsterdam,NL,North Holland,1012,0,"52.3740,4.8897",Europe/Amsterdam
262,94.102.57.135,10000,AS202425 IP Volume inc,Amsterdam,NL,North Holland,1012,tarak.collaboratemotivate.com,"52.3740,4.8897",Europe/Amsterdam
263,89.248.162.164,10000,AS202425 IP Volume inc,Amsterdam,NL,North Holland,1012,no-reverse-dns-configured.com,"52.3740,4.8897",Europe/Amsterdam
264,89.248.162.220,10000,AS202425 IP Volume inc,Amsterdam,NL,North Holland,1012,dns03.bitwire.nl,"52.3740,4.8897",Europe/Amsterdam
265,94.102.57.182,10000,AS202425 IP Volume inc,Amsterdam,NL,North Holland,1012,0,"52.3740,4.8897",Europe/Amsterdam
266,185.39.10.89,10000,AS62355 Network Dedicated SAS,Bogotá,CO,Bogota D.C.,111411,0,"4.6097,-74.0817",America/Bogota
267,80.82.64.98,10000,AS202425 IP Volume inc,Amsterdam,NL,North Holland,1012,0,"52.3740,4.8897",Europe/Amsterdam
268,193.29.13.31,9999,AS42397 Bunea TELECOM SRL,Timişoara,RO,Timiş,300001,0,"45.7537,21.2257",Europe/Bucharest
269,45.129.33.151,9866,AS202425 IP Volume inc,Berngau,DE,Bavaria,92361,0,"49.2500,11.4000",Europe/Berlin
270,93.174.93.123,9817,AS202425 IP Volume inc,Amsterdam,NL,North Holland,1012,scanner.openportstats.com,"52.3740,4.8897",Europe/Amsterdam
271,74.208.236.141,9814,AS8560 1&1 IONOS SE,Kansas City,US,Missouri,64121,74-208-236-141.elastic-ssl.ui-r.com,"39.0997,-94.5786",America/Chicago
272,70.176.79.156,9666,AS22773 Cox Communications Inc.,Tucson,US,Arizona,85702,ip70-176-79-156.ph.ph.cox.net,"32.2217,-110.9265",America/Phoenix
273,73.239.131.65,9629,"AS7922 Comcast Cable Communications, LLC",Spokane,US,Washington,99209,c-73-239-131-65.hsd1.wa.comcast.net,"47.6597,-117.4291",America/Los_Angeles
274,92.63.197.53,9623,AS204655 Novogara LTD,Novosibirsk,RU,Novosibirsk Oblast,630091,0,"55.0411,82.9344",Asia/Novosibirsk
275,1.1.1.1,9620,"AS13335 Cloudflare, Inc.",Miami,US,Florida,33132,one.one.one.one,"25.7867,-80.1800",America/New_York
276,92.63.197.97,9531,AS204655 Novogara LTD,Novosibirsk,RU,Novosibirsk Oblast,630091,0,"55.0411,82.9344",Asia/Novosibirsk
277,45.146.165.24,9454,AS49505 OOO Network of data-centers Selectel,Moscow,RU,Moscow,101000,0,"55.7522,37.6156",Europe/Moscow
278,72.197.236.99,9404,AS22773 Cox Communications Inc.,San Diego,US,California,92101,ip72-197-236-99.sd.sd.cox.net,"32.7157,-117.1647",America/Los_Angeles
279,85.190.156.56,9285,AS199610 marbis GmbH,Los Angeles,US,California,90009,0,"34.0522,-118.2437",America/Los_Angeles
280,108.219.236.47,9192,"AS7018 AT&T Services, Inc.",Detroit,US,Michigan,48226,108-219-236-47.lightspeed.livnmi.sbcglobal.net,"42.3314,-83.0457",America/Detroit
281,193.27.229.207,9188,AS49505 OOO Network of data-centers Selectel,Saint Petersburg,RU,St.-Petersburg,190000,0,"59.9386,30.3141",Europe/Moscow
282,104.190.210.143,9164,"AS7018 AT&T Services, Inc.",O'Fallon,US,Missouri,63366,0,"38.8106,-90.6998",America/Chicago
283,92.63.197.55,9130,AS204655 Novogara LTD,Novosibirsk,RU,Novosibirsk Oblast,630091,0,"55.0411,82.9344",Asia/Novosibirsk
284,45.129.33.43,9115,AS202425 IP Volume inc,Berngau,DE,Bavaria,92361,0,"49.2500,11.4000",Europe/Berlin
285,185.193.91.238,9073,AS44446 OOO SibirInvest,Odessa,UA,Odessa,65000,0,"46.4857,30.7438",Europe/Kiev
286,193.27.228.157,9048,AS49505 OOO Network of data-centers Selectel,Moscow,RU,Moscow,101000,0,"55.7522,37.6156",Europe/Moscow
287,45.134.26.225,9020,AS49505 OOO Network of data-centers Selectel,Moscow,RU,Moscow,101000,0,"55.7522,37.6156",Europe/Moscow
288,172.58.7.72,8892,"AS21928 T-Mobile USA, Inc.",Atlanta,US,Georgia,30302,0,"33.7490,-84.3880",America/New_York
289,194.87.139.133,8884,AS24961 myLoc managed IT AG,Düsseldorf,DE,North Rhine-Westphalia,40212,0,"51.2217,6.7762",Europe/Berlin
290,2.188.92.9,8881,AS43754 Asiatech Data Transmission company,Tehran,IR,Tehrān,0,0,"35.6944,51.4215",Asia/Tehran
291,185.175.93.104,8621,AS44446 OOO SibirInvest,Kyiv,UA,Kyiv City,03027,0,"50.4547,30.5238",Europe/Kiev
292,88.99.66.31,8601,AS24940 Hetzner Online GmbH,Oberdorla,DE,Thuringia,99986,iplogger.com,"51.1658,10.4216",Europe/Berlin
293,77.234.44.186,8589,AS198605 AVAST Software s.r.o.,New York City,US,New York,10004,ten.emfme.net,"40.7143,-74.0060",America/New_York
294,73.135.120.80,8529,"AS7922 Comcast Cable Communications, LLC",Salisbury,US,Maryland,21801,c-73-135-120-80.hsd1.va.comcast.net,"38.3607,-75.5994",America/New_York
295,45.129.33.152,8506,AS202425 IP Volume inc,Berngau,DE,Bavaria,92361,0,"49.2500,11.4000",Europe/Berlin
296,92.63.196.47,8454,AS47981 Romanenko Stanislav Sergeevich,Amsterdam,NL,North Holland,1012,0,"52.3740,4.8897",Europe/Amsterdam
297,5.182.83.42,8412,AS48146 Triple A Fibra S.L.,Murcia,ES,Murcia,30001,0,"37.9870,-1.1300",Europe/Madrid
298,92.63.196.23,8400,AS47981 Romanenko Stanislav Sergeevich,Amsterdam,NL,North Holland,1012,0,"52.3740,4.8897",Europe/Amsterdam
299,185.193.91.42,8377,AS44446 OOO SibirInvest,Odessa,UA,Odessa,65000,0,"46.4857,30.7438",Europe/Kiev
300,73.36.104.215,8324,"AS7922 Comcast Cable Communications, LLC",Hammond,US,Indiana,46324,c-73-36-104-215.hsd1.in.comcast.net,"41.5834,-87.5000",America/Chicago
301,185.175.93.24,8278,AS44446 OOO SibirInvest,Kyiv,UA,Kyiv City,03027,0,"50.4547,30.5238",Europe/Kiev
302,45.135.232.39,8250,AS50340 OOO Network of data-centers Selectel,Moscow,RU,Moscow,101000,0,"55.7522,37.6156",Europe/Moscow
303,185.215.215.152,8201,AS2856 British Telecommunications PLC,Corby,GB,England,NN17,0,"52.4964,-0.6894",Europe/London
304,37.10.127.224,8125,AS199610 marbis GmbH,Los Angeles,US,California,90009,0,"34.0522,-118.2437",America/Los_Angeles
305,185.39.10.54,8116,AS62355 Network Dedicated SAS,Bogotá,CO,Bogota D.C.,111411,0,"4.6097,-74.0817",America/Bogota
306,134.255.240.105,8078,AS199610 marbis GmbH,Miami,US,Florida,33102,0,"25.7743,-80.1937",America/New_York
307,78.128.113.42,8057,AS59900 Balkan Internet Exchange Ltd,Sofia,BG,Sofia-Capital,1000,ip-113-42.4vendeta.com,"42.6975,23.3241",Europe/Sofia
308,92.63.197.61,8050,AS204655 Novogara LTD,Novosibirsk,RU,Novosibirsk Oblast,630091,0,"55.0411,82.9344",Asia/Novosibirsk
309,45.129.33.123,7915,AS202425 IP Volume inc,Berngau,DE,Bavaria,92361,0,"49.2500,11.4000",Europe/Berlin
310,104.239.145.241,7846,AS33070 Rackspace Hosting,El Segundo,US,California,90245,0,"33.9192,-118.4165",America/Los_Angeles
311,193.27.229.47,7760,AS49505 OOO Network of data-centers Selectel,Moscow,RU,Moscow,101000,0,"55.7522,37.6156",Europe/Moscow
312,45.129.33.49,7732,AS202425 IP Volume inc,Berngau,DE,Bavaria,92361,0,"49.2500,11.4000",Europe/Berlin
313,24.59.211.38,7704,AS11351 Charter Communications Inc,West Scarborough,US,Maine,04074,cpe-24-59-211-38.twcny.res.rr.com,"43.5704,-70.3878",America/New_York
314,85.190.154.113,7702,AS199610 marbis GmbH,Frankfurt am Main,DE,Hesse,60311,0,"50.1155,8.6842",Europe/Berlin
315,5.62.127.253,7685,AS199610 marbis GmbH,Frankfurt am Main,DE,Hesse,60311,0,"50.1155,8.6842",Europe/Berlin
316,45.129.33.121,7666,AS202425 IP Volume inc,Berngau,DE,Bavaria,92361,0,"49.2500,11.4000",Europe/Berlin
317,91.240.118.101,7597,AS49453 Global Layer B.V.,Amsterdam,NL,North Holland,1012,0,"52.3740,4.8897",Europe/Amsterdam
318,89.248.172.140,7531,AS202425 IP Volume inc,Amsterdam,NL,North Holland,1012,scanner.openportstats.com,"52.3740,4.8897",Europe/Amsterdam
319,45.146.164.64,7530,AS49505 OOO Network of data-centers Selectel,Moscow,RU,Moscow,101000,0,"55.7522,37.6156",Europe/Moscow
320,46.161.27.75,7385,AS43350 NForce Entertainment B.V.,Krimpen aan den IJssel,NL,South Holland,2923,0,"51.9167,4.6028",Europe/Amsterdam
321,75.191.172.164,7382,AS11426 Charter Communications Inc,Fayetteville,US,North Carolina,28304,cpe-75-191-172-164.nc.res.rr.com,"35.0257,-78.9705",America/New_York
322,103.145.13.230,7380,AS213371 ABC Consultancy,Zwolle,NL,Overijssel,8035,0,"52.5538,6.1537",Europe/Amsterdam
323,18.166.130.197,7333,"AS16509 Amazon.com, Inc.",Hong Kong,HK,Central and Western,0,ec2-18-166-130-197.ap-east-1.compute.amazonaws.com,"22.2783,114.1747",Asia/Hong_Kong
324,185.175.93.23,7305,AS44446 OOO SibirInvest,Kyiv,UA,Kyiv City,03027,0,"50.4547,30.5238",Europe/Kiev
325,87.251.74.201,7296,AS204490 Kontel LLC,Moscow,RU,Moscow,101000,0,"55.7522,37.6156",Europe/Moscow
326,185.94.111.1,7241,AS197068 HLL LLC,Moscow,RU,Moscow,123290,0,"55.7522,37.6156",Europe/Moscow
327,76.106.248.68,7226,"AS7922 Comcast Cable Communications, LLC",Jacksonville,US,Florida,32202,c-76-106-248-68.hsd1.fl.comcast.net,"30.3322,-81.6556",America/New_York
328,78.31.197.3,7202,AS209620 Dr. Michaelis Consult GmbH,Berlin,DE,Berlin,10178,0,"52.5244,13.4105",Europe/Berlin
329,35.141.178.94,7116,"AS33363 Charter Communications, Inc",Keystone,US,Florida,33556,035-141-178-094.dhcp.bhn.net,"28.1559,-82.6212",America/New_York
330,10.72.2.121,7111,0,0,0,0,0,0,0,0
331,45.227.254.30,7078,AS51852 Private Layer INC,Belize City,BZ,Belize,0,hostby.xwinnet.biz,"17.4995,-88.1976",America/Belize
332,103.145.13.152,7072,AS213371 ABC Consultancy,Zwolle,NL,Overijssel,8035,0,"52.5538,6.1537",Europe/Amsterdam
333,24.171.68.253,7019,AS20115 Charter Communications,Woodlawn,US,Illinois,62898,024-171-068-253.res.spectrum.com,"38.3300,-89.0326",America/Chicago
334,185.141.205.230,6987,AS35913 DediPath,Los Angeles,US,California,90009,0,"34.0522,-118.2437",America/Los_Angeles
335,85.190.154.36,6966,AS199610 marbis GmbH,Frankfurt am Main,DE,Hesse,60311,0,"50.1155,8.6842",Europe/Berlin
336,91.240.118.100,6966,AS49453 Global Layer B.V.,Amsterdam,NL,North Holland,1012,0,"52.3740,4.8897",Europe/Amsterdam
337,157.230.31.237,6951,"AS14061 DigitalOcean, LLC",Frankfurt am Main,DE,Hesse,60311,0,"50.1155,8.6842",Europe/Berlin
338,188.40.33.121,6924,AS24940 Hetzner Online GmbH,Stuhr,DE,Lower Saxony,28816,static.121.33.40.188.clients.your-server.de,"53.0333,8.7500",Europe/Berlin
339,92.63.197.88,6917,AS204655 Novogara LTD,Novosibirsk,RU,Novosibirsk Oblast,630091,0,"55.0411,82.9344",Asia/Novosibirsk
340,192.95.49.7,6891,AS16276 OVH SAS,Burnaby,CA,British Columbia,V5C,0,"49.2740,-123.0074",America/Vancouver
341,51.91.21.58,6866,AS16276 OVH SAS,Saintes,FR,Nouvelle-Aquitaine,17100,0,"45.7474,-0.6349",Europe/Paris
342,103.9.158.241,6855,AS63730 VNSO TECHNOLOGY COMPANY,Ho Chi Minh City,VN,Ho Chi Minh,71606,0,"10.8230,106.6296",Asia/Ho_Chi_Minh
343,74.192.186.106,6850,AS19108 Suddenlink Communications,Tyler,US,Texas,75701,r74-192-186-106.mnwlcmta01.mnwltx.tl.dh.suddenlink.net,"32.3254,-95.2922",America/Chicago
344,134.255.240.63,6841,AS199610 marbis GmbH,Miami,US,Florida,33102,0,"25.7743,-80.1937",America/New_York
345,142.44.169.172,6818,AS16276 OVH SAS,Montréal,CA,Quebec,H2W,ip172.ip-142-44-169.net,"45.5088,-73.5878",America/Toronto
346,185.153.196.100,6816,AS49877 RM Engineering LLC,Moscow,RU,Moscow,101000,server-185-153-196-100.cloudedic.net,"55.7522,37.6156",Europe/Moscow
347,139.99.156.157,6803,AS16276 OVH SAS,Sydney,AU,New South Wales,1001,157.ip-139-99-156.eu,"-33.8678,151.2073",Australia/Sydney
348,195.54.161.85,6783,AS49505 OOO Network of data-centers Selectel,Moscow,RU,Moscow,101000,0,"55.7522,37.6156",Europe/Moscow
349,187.226.37.103,6778,AS8151 Uninet S.A. de C.V.,Cuernavaca,MX,Morelos,62280,dsl-187-226-37-103-dyn.prod-infinitum.com.mx,"18.9261,-99.2308",America/Mexico_City
350,185.153.196.82,6729,AS49877 RM Engineering LLC,Moscow,RU,Moscow,101000,0,"55.7522,37.6156",Europe/Moscow
351,92.63.197.58,6716,AS204655 Novogara LTD,Novosibirsk,RU,Novosibirsk Oblast,630091,0,"55.0411,82.9344",Asia/Novosibirsk
352,173.202.23.201,6714,"AS209 CenturyLink Communications, LLC",Manila,US,Arkansas,72442,173-202-23-201.dyn.centurytel.net,"35.8801,-90.1670",America/Chicago
353,51.81.83.25,6698,AS16276 OVH SAS,Washington,US,"Washington, D.C.",20045,us.bonds.id,"38.8951,-77.0364",America/New_York
354,95.156.220.72,6689,AS199610 marbis GmbH,Frankfurt am Main,DE,Hesse,60311,0,"50.1155,8.6842",Europe/Berlin
355,23.210.250.246,6475,"AS16625 Akamai Technologies, Inc.",Frankfurt am Main,DE,Hesse,60311,a23-210-250-246.deploy.static.akamaitechnologies.com,"50.1155,8.6842",Europe/Berlin
356,97.119.98.122,6428,"AS209 CenturyLink Communications, LLC",Omaha,US,Nebraska,68101,97-119-98-122.omah.qwest.net,"41.2563,-95.9404",America/Chicago
357,209.141.38.35,6404,AS53667 FranTech Solutions,Eureka,US,California,95501,node-209-141-38-35.reverse.x4b.me,"40.8021,-124.1637",America/Los_Angeles
358,76.238.245.201,6401,"AS7018 AT&T Services, Inc.",Detroit,US,Michigan,48226,76-238-245-201.lightspeed.livnmi.sbcglobal.net,"42.3314,-83.0457",America/Detroit
359,79.124.62.74,6382,AS59900 Balkan Internet Exchange Ltd,Isperih,BG,Razgrad,7400,0,"43.7167,26.8333",Europe/Sofia
360,66.56.57.199,6326,"AS7725 Comcast Cable Communications, LLC",Sandy Springs,US,Georgia,30328,c-66-56-57-199.hsd1.ga.comcast.net,"33.9243,-84.3785",America/New_York
361,174.96.247.41,6278,AS10796 Charter Communications Inc,Jeffersonville,US,Indiana,47130,cpe-174-96-247-41.columbus.res.rr.com,"38.3078,-85.7359",America/Kentucky/Louisville
362,66.24.35.158,6272,AS11351 Charter Communications Inc,Binghamton,US,New York,13901,cpe-66-24-35-158.stny.res.rr.com,"42.1463,-75.8865",America/New_York
363,134.255.240.103,6206,AS199610 marbis GmbH,Miami,US,Florida,33102,0,"25.7743,-80.1937",America/New_York
364,64.94.100.94,6204,"AS32374 Nuclearfallout Enterprises, Inc.",Los Angeles,US,California,90009,losangeles-1.octovpn.net,"34.0522,-118.2437",America/Los_Angeles
365,45.129.33.45,6172,AS202425 IP Volume inc,Berngau,DE,Bavaria,92361,0,"49.2500,11.4000",Europe/Berlin
366,45.146.164.211,6170,AS49505 OOO Network of data-centers Selectel,Moscow,RU,Moscow,101000,0,"55.7522,37.6156",Europe/Moscow
367,99.104.243.221,6107,"AS7018 AT&T Services, Inc.",Corona,US,California,92877,99-104-243-221.lightspeed.irvnca.sbcglobal.net,"33.8753,-117.5664",America/Los_Angeles
368,10.72.2.3,6090,0,0,0,0,0,0,0,0
369,80.82.64.4,6016,AS202425 IP Volume inc,Amsterdam,NL,North Holland,1012,0,"52.3740,4.8897",Europe/Amsterdam
370,80.82.78.211,6010,AS202425 IP Volume inc,Amsterdam,NL,North Holland,1012,scanner.openportstats.com,"52.3740,4.8897",Europe/Amsterdam
371,103.145.13.195,6008,AS213371 ABC Consultancy,Zwolle,NL,Overijssel,8035,0,"52.5538,6.1537",Europe/Amsterdam
372,80.82.77.231,6000,AS202425 IP Volume inc,Amsterdam,NL,North Holland,1012,scanner.openportstats.com,"52.3740,4.8897",Europe/Amsterdam
373,85.190.154.201,5998,AS199610 marbis GmbH,Frankfurt am Main,DE,Hesse,60311,0,"50.1155,8.6842",Europe/Berlin
374,217.115.15.113,5963,AS31078 Alexej Senderkin,Berlin,DE,Berlin,10178,berlin.frachtwerk.de,"52.5244,13.4105",Europe/Berlin
375,173.89.164.114,5959,AS10796 Charter Communications Inc,Akron,US,Ohio,44305,cpe-173-89-164-114.neo.res.rr.com,"41.0760,-81.4644",America/New_York
376,217.91.81.55,5942,AS3320 Deutsche Telekom AG,Bielefeld,DE,North Rhine-Westphalia,33519,pd95b5137.dip0.t-ipconnect.de,"52.0333,8.5333",Europe/Berlin
377,10.72.2.229,5907,0,0,0,0,0,0,0,0
378,10.72.2.220,5896,0,0,0,0,0,0,0,0
379,185.176.27.42,5864,0,Krasnoobsk,RU,Novosibirsk Oblast,630105,0,"54.8490,83.1072",Asia/Novosibirsk
380,23.97.242.129,5853,AS8075 Microsoft Corporation,Amsterdam,NL,North Holland,1093,0,"52.3618,4.9280",Europe/Amsterdam
381,184.180.106.214,5778,AS22773 Cox Communications Inc.,Central,US,Louisiana,70818,ip184-180-106-214.br.br.cox.net,"30.5543,-91.0368",America/Chicago
382,45.146.165.161,5777,AS49505 OOO Network of data-centers Selectel,Moscow,RU,Moscow,101000,0,"55.7522,37.6156",Europe/Moscow
383,125.64.94.136,5731,AS38283 CHINANET SiChuan Telecom Internet Data Center,Hangzhou,CN,Zhejiang,0,0,"30.2936,120.1614",Asia/Shanghai
384,61.131.223.33,5722,AS4134 CHINANET-BACKBONE,Hangzhou,CN,Zhejiang,0,33.223.131.61.dial.nc.jx.dynamic.163data.com.cn,"30.2936,120.1614",Asia/Shanghai
385,10.72.2.28,5721,0,0,0,0,0,0,0,0
386,10.72.2.2,5705,0,0,0,0,0,0,0,0
387,195.54.161.132,5699,AS49505 OOO Network of data-centers Selectel,Moscow,RU,Moscow,101000,0,"55.7522,37.6156",Europe/Moscow
388,164.68.112.178,5699,AS51167 Contabo GmbH,Nürnberg,DE,Bavaria,90402,ip-178-112-68-164.static.contabo.net,"49.4542,11.0775",Europe/Berlin
389,85.190.159.233,5678,AS199610 marbis GmbH,Miami,US,Florida,33102,0,"25.7743,-80.1937",America/New_York
390,51.161.107.174,5675,AS16276 OVH SAS,Montréal,CA,Quebec,H3A,51-161-107-174.mon.priv.octovpn.net,"45.5040,-73.5747",America/Toronto
391,10.72.2.139,5651,0,0,0,0,0,0,0,0
392,142.116.101.141,5647,AS577 Bell Canada,Toronto,CA,Ontario,M5N,lnsm3-torontoxn-142-116-101-141.internet.virginmobile.ca,"43.7001,-79.4163",America/Toronto
393,10.72.2.204,5634,0,0,0,0,0,0,0,0
394,72.198.214.232,5620,AS22773 Cox Communications Inc.,Omaha,US,Nebraska,68101,ip72-198-214-232.om.om.cox.net,"41.2563,-95.9404",America/Chicago
395,80.94.93.10,5600,AS213371 ABC Consultancy,Amsterdam,NL,North Holland,1012,80-94-93-10.network-portal.com,"52.3740,4.8897",Europe/Amsterdam
396,138.99.216.104,5587,AS43350 NForce Entertainment B.V.,Krimpen aan den IJssel,NL,South Holland,2923,0,"51.9167,4.6028",Europe/Amsterdam
397,104.136.20.238,5574,"AS33363 Charter Communications, Inc",Sanford,US,Florida,32773,104-136-020-238.res.spectrum.com,"28.7644,-81.2820",America/New_York
398,20.54.39.141,5542,AS8075 Microsoft Corporation,Dublin,IE,Leinster,D02,0,"53.3331,-6.2489",Europe/Dublin
399,193.29.15.169,5518,AS42397 Bunea TELECOM SRL,Timişoara,RO,Timiş,300001,0,"45.7537,21.2257",Europe/Bucharest
400,45.141.59.158,5508,AS213373 IP Connect Inc,Amsterdam,NL,North Holland,1012,0,"52.3740,4.8897",Europe/Amsterdam
401,85.190.149.186,5484,AS199610 marbis GmbH,London,GB,England,EC1A,0,"51.5085,-0.1257",Europe/London
402,109.230.214.227,5482,AS199610 marbis GmbH,Miami,US,Florida,33102,0,"25.7743,-80.1937",America/New_York
403,144.217.133.72,5479,AS16276 OVH SAS,Montréal,CA,Quebec,H3A,allowingssecurity.xyz,"45.5040,-73.5747",America/Toronto
404,10.72.2.163,5467,0,0,0,0,0,0,0,0
405,104.10.25.133,5448,"AS7018 AT&T Services, Inc.",Los Angeles,US,California,90009,104-10-25-133.lightspeed.irvnca.sbcglobal.net,"34.0522,-118.2437",America/Los_Angeles
406,185.56.80.55,5440,AS43350 NForce Entertainment B.V.,Krimpen aan den IJssel,NL,South Holland,2923,xx.freeflux.org,"51.9167,4.6028",Europe/Amsterdam
407,52.206.191.232,5440,"AS14618 Amazon.com, Inc.",Virginia Beach,US,Virginia,23464,ec2-52-206-191-232.compute-1.amazonaws.com,"36.7978,-76.1759",America/New_York
408,10.72.2.217,5392,0,0,0,0,0,0,0,0
409,5.182.25.67,5388,AS43264 RTO-DON LLC,Shakhty,RU,Rostov,346500,0,"47.7091,40.2144",Europe/Moscow
410,107.144.246.245,5356,"AS33363 Charter Communications, Inc",Bakersfield,US,California,93308,107-144-246-245.res.spectrum.com,"35.4244,-119.0433",America/Los_Angeles
411,104.156.235.94,5339,"AS20473 Choopa, LLC",Chicago,US,Illinois,60666,104-156-235-94.choopa.net,"41.8500,-87.6500",America/Chicago
412,10.72.2.42,5321,0,0,0,0,0,0,0,0
413,45.146.165.160,5317,AS49505 OOO Network of data-centers Selectel,Moscow,RU,Moscow,101000,0,"55.7522,37.6156",Europe/Moscow
414,45.146.165.216,5302,AS49505 OOO Network of data-centers Selectel,Moscow,RU,Moscow,101000,0,"55.7522,37.6156",Europe/Moscow
415,2.21.37.52,5277,AS20940 Akamai International B.V.,Frankfurt am Main,DE,Hesse,60311,a2-21-37-52.deploy.static.akamaitechnologies.com,"50.1155,8.6842",Europe/Berlin
416,161.189.114.127,5252,AS135629 Ningxia West Cloud Data Technology Co.Ltd.,Yinchuan,CN,Ningxia Hui Autonomous Region,0,ec2-161-189-114-127.cn-northwest-1.compute.amazonaws.com.cn,"38.4681,106.2731",Asia/Shanghai
417,85.190.156.59,5242,AS199610 marbis GmbH,Los Angeles,US,California,90009,0,"34.0522,-118.2437",America/Los_Angeles
418,67.11.41.107,5219,AS11427 Charter Communications Inc,San Antonio,US,Texas,78238,cpe-67-11-41-107.satx.res.rr.com,"29.4510,-98.6169",America/Chicago
419,62.210.123.109,5215,AS12876 ONLINE S.A.S.,Orléans,FR,Centre,45000,62-210-123-109.rev.poneytelecom.eu,"47.9029,1.9039",Europe/Paris
420,80.111.34.10,5195,AS6830 Liberty Global B.V.,Dublin,IE,Leinster,D02,cm-80.111.34.010.ntlworld.ie,"53.3331,-6.2489",Europe/Dublin
421,109.230.243.103,5192,AS199610 marbis GmbH,Miami,US,Florida,33102,0,"25.7743,-80.1937",America/New_York
422,201.103.23.127,5188,AS8151 Uninet S.A. de C.V.,Mexico City,MX,Mexico City,03020,dsl-201-103-23-127-dyn.prod-infinitum.com.mx,"19.4285,-99.1277",America/Mexico_City
423,143.159.94.11,5188,AS6871 Plusnet,Sheffield,GB,England,S1,11.94.159.143.dyn.plus.net,"53.3830,-1.4659",Europe/London
424,10.72.2.21,5184,0,0,0,0,0,0,0,0
425,42.157.192.132,5183,AS134543 China Unicom Guangdong IP network,Dongguan,CN,Guangdong,0,0,"23.0180,113.7487",Asia/Shanghai
426,5.182.24.16,5111,AS43264 RTO-DON LLC,Shakhty,RU,Rostov,346500,0,"47.7091,40.2144",Europe/Moscow
427,10.72.2.134,5073,0,0,0,0,0,0,0,0
428,76.102.29.12,5067,"AS7922 Comcast Cable Communications, LLC",San Francisco,US,California,94103,c-76-102-29-12.hsd1.ca.comcast.net,"37.7749,-122.4194",America/Los_Angeles
429,104.153.105.177,5054,"AS14586 Nuclearfallout Enterprises, Inc.",Columbus,US,Ohio,43215,0,"39.9612,-82.9988",America/New_York
430,172.86.114.2,5046,AS213349 OctoSEC LTD,Humboldt,US,Tennessee,38343,chicago-premium-game-1.octovpn.net,"35.8198,-88.9159",America/Chicago
431,187.194.104.144,5023,AS8151 Uninet S.A. de C.V.,Villahermosa,MX,Tabasco,86080,dsl-187-194-104-144-dyn.prod-infinitum.com.mx,"17.9869,-92.9303",America/Mexico_City
432,185.107.96.46,5009,AS48910 InterNAP Network Services U.K. Limited,Frankfurt am Main,DE,Hesse,60311,0,"50.1155,8.6842",Europe/Berlin
433,187.192.249.130,4986,AS8151 Uninet S.A. de C.V.,Colima,MX,Colima,28030,dsl-187-192-249-130-dyn.prod-infinitum.com.mx,"19.2500,-103.7271",America/Mexico_City
434,185.176.27.94,4969,0,Krasnoobsk,RU,Novosibirsk Oblast,630105,0,"54.8490,83.1072",Asia/Novosibirsk
435,10.72.2.60,4960,0,0,0,0,0,0,0,0
436,222.186.136.150,4940,AS23650 AS Number for CHINANET jiangsu province backbone,Shanghai,CN,Shanghai,0,0,"31.2222,121.4581",Asia/Shanghai
437,31.214.136.61,4920,AS199610 marbis GmbH,New York City,US,New York,10004,0,"40.7143,-74.0060",America/New_York
438,94.102.50.137,4913,AS202425 IP Volume inc,Amsterdam,NL,North Holland,1012,no-reverse-dns-configured.com,"52.3740,4.8897",Europe/Amsterdam
439,10.72.2.7,4912,0,0,0,0,0,0,0,0
440,132.148.98.127,4910,"AS398101 GoDaddy.com, LLC",Phoenix,US,Arizona,85001,ip-132-148-98-127.ip.secureserver.net,"33.4484,-112.0740",America/Phoenix
441,51.222.72.153,4823,AS16276 OVH SAS,Montréal,CA,Quebec,H3A,0,"45.5040,-73.5747",America/Toronto
442,192.168.1.7,4815,0,0,0,0,0,0,0,0
443,79.124.62.118,4815,AS59900 Balkan Internet Exchange Ltd,Isperih,BG,Razgrad,7400,0,"43.7167,26.8333",Europe/Sofia
444,51.79.142.79,4797,AS16276 OVH SAS,Singapore,SG,Singapore,048508,0,"1.2897,103.8501",Asia/Singapore
445,142.44.140.215,4772,AS16276 OVH SAS,Montréal,CA,Quebec,H3A,0,"45.5040,-73.5747",America/Toronto
446,185.153.199.185,4767,AS49877 RM Engineering LLC,Moscow,RU,Moscow,101000,0,"55.7522,37.6156",Europe/Moscow
447,156.96.47.103,4763,AS46664 VolumeDrive,Rochester,US,New York,14614,0,"43.1548,-77.6156",America/New_York
448,185.153.199.187,4643,AS49877 RM Engineering LLC,Moscow,RU,Moscow,101000,0,"55.7522,37.6156",Europe/Moscow
449,195.54.161.59,4629,AS49505 OOO Network of data-centers Selectel,Moscow,RU,Moscow,101000,0,"55.7522,37.6156",Europe/Moscow
450,195.54.161.58,4623,AS49505 OOO Network of data-centers Selectel,Moscow,RU,Moscow,101000,0,"55.7522,37.6156",Europe/Moscow
451,45.129.33.16,4616,AS202425 IP Volume inc,Berngau,DE,Bavaria,92361,0,"49.2500,11.4000",Europe/Berlin
452,73.187.174.212,4609,"AS7922 Comcast Cable Communications, LLC",Harrisburg,US,Pennsylvania,17128,c-73-187-174-212.hsd1.pa.comcast.net,"40.2737,-76.8844",America/New_York
453,10.0.0.62,4606,0,0,0,0,0,0,0,0
454,85.190.153.139,4583,AS199610 marbis GmbH,Miami,US,Florida,33102,0,"25.7743,-80.1937",America/New_York
455,1.128.110.164,4546,AS1221 Telstra Corporation Ltd,Brisbane,AU,Queensland,4000,0,"-27.4679,153.0281",Australia/Brisbane
456,158.69.102.163,4545,AS16276 OVH SAS,Toronto,CA,Ontario,M5N,163.102.69.158.lunanode-rdns.com,"43.7001,-79.4163",America/Toronto
457,51.210.222.38,4522,AS16276 OVH SAS,Calais,FR,Hauts-de-France,62100,ns3178927.ip-51-210-222.eu,"50.9519,1.8563",Europe/Paris
458,89.248.162.137,4505,AS202425 IP Volume inc,Amsterdam,NL,North Holland,1012,0,"52.3740,4.8897",Europe/Amsterdam
459,104.28.24.210,4492,"AS13335 Cloudflare, Inc.",San Francisco,US,California,94107,0,"37.7621,-122.3971",America/Los_Angeles
460,103.145.13.43,4482,AS213371 ABC Consultancy,Zwolle,NL,Overijssel,8035,0,"52.5538,6.1537",Europe/Amsterdam
461,37.10.124.105,4476,AS199610 marbis GmbH,Los Angeles,US,California,90009,0,"34.0522,-118.2437",America/Los_Angeles
462,66.151.211.50,4466,AS35913 DediPath,San Jose,US,California,95134,0,"37.4087,-121.9406",America/Los_Angeles
463,172.86.35.154,4445,"AS63394 Eastern Iowa IP, LLC",Oelwein,US,Iowa,50662,0,"42.6733,-91.9135",America/Chicago
464,85.209.0.100,4443,AS207569 Ihor Hosting LLC,Moscow,RU,Moscow,101000,0,"55.7522,37.6156",Europe/Moscow
465,94.102.50.155,4442,AS202425 IP Volume inc,Amsterdam,NL,North Holland,1012,0,"52.3740,4.8897",Europe/Amsterdam
466,185.60.216.53,4427,"AS32934 Facebook, Inc.",Dublin,IE,Leinster,D02,whatsapp-cdn-shv-01-frx5.fbcdn.net,"53.3331,-6.2489",Europe/Dublin
467,81.3.6.164,4423,AS24679 Hostway Deutschland GmbH,Hamburg,DE,Hamburg,20038,w3.tutanota.de,"53.5507,9.9930",Europe/Berlin
468,54.39.40.127,4401,AS16276 OVH SAS,Montréal,CA,Quebec,H3A,ip127.ip-54-39-40.net,"45.5040,-73.5747",America/Toronto
469,199.231.233.28,4383,"AS36231 Tempest Hosting, LLC",Independence,US,Missouri,64051,dallas.stoplookingatmyipskid.com,"39.0911,-94.4155",America/Chicago
470,68.224.229.216,4364,AS22773 Cox Communications Inc.,Las Vegas,US,Nevada,89111,ip68-224-229-216.lv.lv.cox.net,"36.1750,-115.1372",America/Los_Angeles
471,104.143.83.242,4359,AS62874 Web2Objects LLC,Los Angeles,US,California,90051,0,"34.0522,-118.2437",America/Los_Angeles
472,45.129.33.44,4315,AS202425 IP Volume inc,Berngau,DE,Bavaria,92361,0,"49.2500,11.4000",Europe/Berlin
473,89.144.47.244,4259,AS35042 IP Interactive UG (haftungsbeschraenkt),Schmitten,DE,Hesse,61389,0,"50.2667,8.4500",Europe/Berlin
474,149.172.39.86,4250,AS6830 Liberty Global B.V.,Karlsruhe,DE,Baden-Württemberg,76133,hsi-kbw-149-172-39-86.hsi13.kabel-badenwuerttemberg.de,"49.0094,8.4044",Europe/Berlin
475,193.49.176.21,4233,AS2200 Renater,Montpellier,FR,Occitanie,34000,0,"43.6109,3.8763",Europe/Paris
476,172.193.147.214,4222,AS133414 Foxtel Management Pty Ltd,Narangba,AU,Queensland,4504,0,"-27.2034,152.9592",Australia/Brisbane
477,185.11.125.56,4209,AS19551 Incapsula Inc,Belmont,US,California,94002,0,"37.5202,-122.2758",America/Los_Angeles
478,185.193.91.94,4202,AS44446 OOO SibirInvest,Odessa,UA,Odessa,65000,0,"46.4857,30.7438",Europe/Kiev
479,194.26.25.102,4198,AS63018 Dedicated.com,Los Angeles,US,California,90009,0,"34.0522,-118.2437",America/Los_Angeles
480,73.208.33.154,4172,"AS7922 Comcast Cable Communications, LLC",Chicago,US,Illinois,60666,c-73-208-33-154.hsd1.il.comcast.net,"41.8500,-87.6500",America/Chicago
481,45.129.33.182,4143,AS202425 IP Volume inc,Berngau,DE,Bavaria,92361,0,"49.2500,11.4000",Europe/Berlin
482,85.190.157.148,4136,AS199610 marbis GmbH,Los Angeles,US,California,90009,0,"34.0522,-118.2437",America/Los_Angeles
483,45.129.33.175,4130,AS202425 IP Volume inc,Berngau,DE,Bavaria,92361,0,"49.2500,11.4000",Europe/Berlin
484,45.129.33.185,4123,AS202425 IP Volume inc,Berngau,DE,Bavaria,92361,0,"49.2500,11.4000",Europe/Berlin
485,10.72.2.83,4113,0,0,0,0,0,0,0,0
486,45.129.33.179,4113,AS202425 IP Volume inc,Berngau,DE,Bavaria,92361,0,"49.2500,11.4000",Europe/Berlin
487,45.129.33.176,4112,AS202425 IP Volume inc,Berngau,DE,Bavaria,92361,0,"49.2500,11.4000",Europe/Berlin
488,45.129.33.178,4083,AS202425 IP Volume inc,Berngau,DE,Bavaria,92361,0,"49.2500,11.4000",Europe/Berlin
489,45.129.33.180,4081,AS202425 IP Volume inc,Berngau,DE,Bavaria,92361,0,"49.2500,11.4000",Europe/Berlin
490,85.192.149.11,4079,AS12389 PJSC Rostelecom,Buguruslan,RU,Orenburg Oblast,461630,85-192-149-11.dsl.esoo.ru,"53.6554,52.4420",Asia/Yekaterinburg
491,45.129.33.183,4075,AS202425 IP Volume inc,Berngau,DE,Bavaria,92361,0,"49.2500,11.4000",Europe/Berlin
492,109.230.243.184,4074,AS199610 marbis GmbH,Miami,US,Florida,33102,0,"25.7743,-80.1937",America/New_York
493,45.143.221.199,4060,AS213371 ABC Consultancy,Amsterdam,NL,North Holland,1012,0,"52.3740,4.8897",Europe/Amsterdam
494,45.129.33.171,4048,AS202425 IP Volume inc,Berngau,DE,Bavaria,92361,0,"49.2500,11.4000",Europe/Berlin
495,45.129.33.181,4019,AS202425 IP Volume inc,Berngau,DE,Bavaria,92361,0,"49.2500,11.4000",Europe/Berlin
496,45.129.33.186,3999,AS202425 IP Volume inc,Berngau,DE,Bavaria,92361,0,"49.2500,11.4000",Europe/Berlin
497,185.153.197.185,3998,AS49877 RM Engineering LLC,Moscow,RU,Moscow,101000,server-185-153-197-185.cloudedic.net,"55.7522,37.6156",Europe/Moscow
498,45.129.33.174,3992,AS202425 IP Volume inc,Berngau,DE,Bavaria,92361,0,"49.2500,11.4000",Europe/Berlin
499,88.126.253.199,3989,AS12322 Free SAS,Vannes,FR,Brittany,56000,far02-1_migr-88-126-253-199.fbx.proxad.net,"47.6569,-2.7620",Europe/Paris
500,45.129.33.187,3985,AS202425 IP Volume inc,Berngau,DE,Bavaria,92361,0,"49.2500,11.4000",Europe/Berlin
501,51.79.35.114,3983,AS16276 OVH SAS,Montréal,CA,Quebec,H3A,ip114.ip-51-79-35.net,"45.5040,-73.5747",America/Toronto
502,45.129.33.177,3983,AS202425 IP Volume inc,Berngau,DE,Bavaria,92361,0,"49.2500,11.4000",Europe/Berlin
503,194.26.25.116,3978,AS63018 Dedicated.com,Los Angeles,US,California,90009,0,"34.0522,-118.2437",America/Los_Angeles
504,45.129.33.172,3977,AS202425 IP Volume inc,Berngau,DE,Bavaria,92361,0,"49.2500,11.4000",Europe/Berlin
505,23.225.178.38,3974,AS40065 CNSERVERS LLC,Los Angeles,US,California,90009,0,"34.0522,-118.2437",America/Los_Angeles
506,45.61.142.185,3958,AS213349 OctoSEC LTD,Cheyenne,US,Wyoming,82002,insta-ic1cn.com,"41.1400,-104.8203",America/Denver
507,45.125.65.52,3955,AS133398 Tele Asia Limited,Kaunas,LT,Kaunas,44001,0,"54.9027,23.9096",Europe/Vilnius
508,85.190.158.58,3913,AS199610 marbis GmbH,Manhattan,US,New York,10024,0,"40.7834,-73.9663",America/New_York
509,10.72.2.89,3889,0,0,0,0,0,0,0,0
510,85.190.149.42,3867,AS199610 marbis GmbH,London,GB,England,EC1A,0,"51.5085,-0.1257",Europe/London
511,74.66.214.127,3848,AS12271 Charter Communications Inc,Fresh Meadows,US,New York,11355,cpe-74-66-214-127.si.res.rr.com,"40.7536,-73.8226",America/New_York
512,45.143.221.129,3840,AS213371 ABC Consultancy,Amsterdam,NL,North Holland,1012,0,"52.3740,4.8897",Europe/Amsterdam
513,103.145.13.128,3836,AS213371 ABC Consultancy,Zwolle,NL,Overijssel,8035,0,"52.5538,6.1537",Europe/Amsterdam
514,220.242.157.15,3832,AS54994 QUANTIL NETWORKS INC,Beijing,CN,Beijing,0,0,"39.9075,116.3972",Asia/Shanghai
515,86.169.226.194,3831,AS2856 British Telecommunications PLC,Liverpool,GB,England,L1,host86-169-226-194.range86-169.btcentralplus.com,"53.4106,-2.9779",Europe/London
516,51.81.112.12,3829,AS16276 OVH SAS,Washington,US,"Washington, D.C.",20045,ip12.ip-51-81-112.us,"38.8951,-77.0364",America/New_York
517,96.246.90.252,3828,"AS701 MCI Communications Services, Inc. d/b/a Verizon Business",New York City,US,New York,10004,pool-96-246-90-252.nycmny.fios.verizon.net,"40.7143,-74.0060",America/New_York
518,193.27.229.26,3809,AS49505 OOO Network of data-centers Selectel,Moscow,RU,Moscow,101000,0,"55.7522,37.6156",Europe/Moscow
519,194.26.25.108,3793,AS63018 Dedicated.com,Los Angeles,US,California,90009,0,"34.0522,-118.2437",America/Los_Angeles
520,80.187.96.106,3786,AS3320 Deutsche Telekom AG,Stuttgart,DE,Baden-Württemberg,70173,tmo-096-106.customers.d1-online.com,"48.7823,9.1770",Europe/Berlin
521,185.175.93.37,3781,AS44446 OOO SibirInvest,Kyiv,UA,Kyiv City,03027,0,"50.4547,30.5238",Europe/Kiev
522,95.156.198.125,3780,AS199610 marbis GmbH,Fort Worth,US,Texas,76185,0,"32.7714,-97.2915",America/Chicago
523,194.55.14.97,3753,AS197540 netcup GmbH,Templin,DE,Brandenburg,17268,mail.server.camp,"53.1187,13.5022",Europe/Berlin
524,45.129.33.17,3739,AS202425 IP Volume inc,Berngau,DE,Bavaria,92361,0,"49.2500,11.4000",Europe/Berlin
525,193.27.228.224,3738,AS49505 OOO Network of data-centers Selectel,Moscow,RU,Moscow,101000,0,"55.7522,37.6156",Europe/Moscow
526,12.151.56.23,3737,"AS7018 AT&T Services, Inc.",Colorado Springs,US,Colorado,80901,0,"38.8339,-104.8214",America/Denver
527,85.212.57.94,3735,AS12312 ecotel communication ag,Ravensburg,DE,Baden-Württemberg,88214,55d4395e.access.ecotel.net,"47.7820,9.6106",Europe/Berlin
528,193.27.229.184,3717,AS49505 OOO Network of data-centers Selectel,Saint Petersburg,RU,St.-Petersburg,190000,0,"59.9386,30.3141",Europe/Moscow
529,74.91.119.228,3706,"AS14586 Nuclearfallout Enterprises, Inc.",Torrance,US,California,90503,your-server-is-ass-courvix.packetguard.online,"33.8359,-118.3406",America/Los_Angeles
530,194.26.25.8,3700,AS63018 Dedicated.com,Los Angeles,US,California,90009,0,"34.0522,-118.2437",America/Los_Angeles
531,45.129.33.46,3692,AS202425 IP Volume inc,Berngau,DE,Bavaria,92361,0,"49.2500,11.4000",Europe/Berlin
532,209.151.144.36,3692,AS25697 UpCloud USA Inc,Tracy,US,California,95376,lpedc.com,"37.7399,-121.4262",America/Los_Angeles
533,149.7.16.100,3667,AS63023 GTHost,London,GB,England,EC1A,100-16-7-149.clients.gthost.com,"51.5085,-0.1257",Europe/London
534,75.45.56.57,3662,"AS7018 AT&T Services, Inc.",Calhoun,US,Georgia,30703,75-45-56-57.lightspeed.tukrga.sbcglobal.net,"34.5026,-84.9510",America/New_York
535,158.69.11.132,3647,AS16276 OVH SAS,Montréal,CA,Quebec,H3A,ip132.ip-158-69-11.net,"45.5040,-73.5747",America/Toronto
536,94.102.49.191,3635,AS202425 IP Volume inc,Amsterdam,NL,North Holland,1012,no-reverse-dns-configured.com,"52.3740,4.8897",Europe/Amsterdam
537,173.228.198.67,3623,"AS10396 DATACOM CARIBE, INC.",San Juan,PR,San Juan,00901,adsl-173-228-198-67.prtc.net,"18.4663,-66.1057",America/Puerto_Rico
538,87.251.74.6,3615,AS204490 Kontel LLC,Volgograd,RU,Volgograd Oblast,404160,0,"48.7194,44.5018",Europe/Volgograd
539,80.82.70.118,3611,AS202425 IP Volume inc,Amsterdam,NL,North Holland,1012,rnd.group-ib.ru,"52.3740,4.8897",Europe/Amsterdam
540,70.173.157.63,3607,AS22773 Cox Communications Inc.,Las Vegas,US,Nevada,89111,ip70-173-157-63.lv.lv.cox.net,"36.1750,-115.1372",America/Los_Angeles
541,51.81.84.53,3605,AS16276 OVH SAS,Washington,US,"Washington, D.C.",20045,vps-7417cd98.vps.ovh.us,"38.8951,-77.0364",America/New_York
542,80.82.77.245,3556,AS202425 IP Volume inc,Amsterdam,NL,North Holland,1012,security.criminalip.com,"52.3740,4.8897",Europe/Amsterdam
543,37.83.238.79,3550,AS3320 Deutsche Telekom AG,Schwanewede,DE,Lower Saxony,28790,0,"53.2333,8.6000",Europe/Berlin
544,172.105.86.121,3524,"AS63949 Linode, LLC",Frankfurt am Main,DE,Hesse,60311,li2047-121.members.linode.com,"50.1155,8.6842",Europe/Berlin
545,93.174.93.195,3522,AS202425 IP Volume inc,Amsterdam,NL,North Holland,1012,security.criminalip.com,"52.3740,4.8897",Europe/Amsterdam
546,95.156.238.62,3521,AS199610 marbis GmbH,Los Angeles,US,California,90009,0,"34.0522,-118.2437",America/Los_Angeles
547,142.44.166.226,3515,AS16276 OVH SAS,Montréal,CA,Quebec,H2W,web01.chren.newlotusweb.net,"45.5088,-73.5878",America/Toronto
548,141.98.80.22,3509,AS43350 NForce Entertainment B.V.,Amsterdam,NL,North Holland,1012,0,"52.3740,4.8897",Europe/Amsterdam
549,141.98.9.23,3506,AS209605 UAB Host Baltic,Amsterdam,NL,North Holland,1012,chinue.tumblles.com,"52.3740,4.8897",Europe/Amsterdam
550,108.75.181.14,3497,"AS7018 AT&T Services, Inc.",Miami,US,Florida,33102,108-75-181-14.lightspeed.miamfl.sbcglobal.net,"25.7743,-80.1937",America/New_York
551,10.72.2.57,3470,0,0,0,0,0,0,0,0
552,51.195.133.160,3443,AS16276 OVH SAS,Bexley,GB,England,DA15,ip160.ip-51-195-133.eu,"51.4416,0.1487",Europe/London
553,103.95.221.20,3404,AS4837 CHINA UNICOM China169 Backbone,Beijing,CN,Beijing,0,0,"39.9075,116.3972",Asia/Shanghai
554,10.72.2.31,3398,0,0,0,0,0,0,0,0
555,190.86.109.96,3378,AS14754 Telgua,San Salvador,SV,San Salvador,0,0,"13.6893,-89.1872",America/El_Salvador
556,10.72.2.184,3371,0,0,0,0,0,0,0,0
557,95.156.220.79,3365,AS199610 marbis GmbH,Frankfurt am Main,DE,Hesse,60311,0,"50.1155,8.6842",Europe/Berlin
558,89.248.160.150,3352,AS202425 IP Volume inc,Amsterdam,NL,North Holland,1012,security.criminalip.com,"52.3740,4.8897",Europe/Amsterdam
559,94.102.56.216,3345,AS202425 IP Volume inc,Amsterdam,NL,North Holland,1012,0,"52.3740,4.8897",Europe/Amsterdam
560,94.9.96.206,3333,AS5607 Sky UK Limited,Glasgow,GB,Scotland,G1,5e0960ce.bb.sky.com,"55.8651,-4.2576",Europe/London
561,71.197.168.16,3327,"AS7922 Comcast Cable Communications, LLC",Tacoma,US,Washington,98401,c-71-197-168-16.hsd1.wa.comcast.net,"47.2529,-122.4443",America/Los_Angeles
562,10.72.2.135,3305,0,0,0,0,0,0,0,0
563,68.37.80.125,3302,"AS33668 Comcast Cable Communications, LLC",Flint,US,Michigan,48503,c-68-37-80-125.hsd1.mi.comcast.net,"43.0125,-83.6875",America/Detroit
564,45.129.33.128,3281,AS202425 IP Volume inc,Berngau,DE,Bavaria,92361,0,"49.2500,11.4000",Europe/Berlin
565,10.72.2.237,3274,0,0,0,0,0,0,0,0
566,85.190.155.105,3251,AS199610 marbis GmbH,Frankfurt am Main,DE,Hesse,60311,0,"50.1155,8.6842",Europe/Berlin
567,80.82.65.40,3250,AS202425 IP Volume inc,Amsterdam,NL,North Holland,1012,scanner.openportstats.com,"52.3740,4.8897",Europe/Amsterdam
568,37.10.124.249,3237,AS199610 marbis GmbH,Los Angeles,US,California,90009,0,"34.0522,-118.2437",America/Los_Angeles
569,148.72.168.23,3230,"AS30083 GoDaddy.com, LLC",St. Louis,US,Missouri,63150,0,"38.6273,-90.1979",America/Chicago
570,172.86.114.210,3211,AS213349 OctoSEC LTD,Fairmont,US,West Virginia,26554,172-86-114-210.dal.priv.octovpn.net,"39.4851,-80.1426",America/New_York
571,45.146.165.154,3198,AS49505 OOO Network of data-centers Selectel,Moscow,RU,Moscow,101000,0,"55.7522,37.6156",Europe/Moscow
572,45.92.126.250,3192,AS35913 DediPath,Los Angeles,US,California,90009,0,"34.0522,-118.2437",America/Los_Angeles
573,104.152.52.25,3192,AS14987 Rethem Hosting LLC,Chicago,US,Illinois,60666,internettl.org,"41.8500,-87.6500",America/Chicago
574,104.152.52.39,3192,AS14987 Rethem Hosting LLC,Chicago,US,Illinois,60666,internettl.org,"41.8500,-87.6500",America/Chicago
575,104.152.52.33,3191,AS14987 Rethem Hosting LLC,Chicago,US,Illinois,60666,internettl.org,"41.8500,-87.6500",America/Chicago
576,104.152.52.34,3191,AS14987 Rethem Hosting LLC,Chicago,US,Illinois,60666,internettl.org,"41.8500,-87.6500",America/Chicago
577,80.82.65.90,3183,AS202425 IP Volume inc,Amsterdam,NL,North Holland,1012,no-reverse-dns-configured.com,"52.3740,4.8897",Europe/Amsterdam
578,85.190.154.111,3169,AS199610 marbis GmbH,Frankfurt am Main,DE,Hesse,60311,0,"50.1155,8.6842",Europe/Berlin
579,45.146.165.68,3167,AS49505 OOO Network of data-centers Selectel,Moscow,RU,Moscow,101000,0,"55.7522,37.6156",Europe/Moscow
580,93.174.89.55,3164,AS202425 IP Volume inc,Amsterdam,NL,North Holland,1012,no-reverse-dns-configured.com,"52.3740,4.8897",Europe/Amsterdam
581,89.248.168.157,3164,AS202425 IP Volume inc,Amsterdam,NL,North Holland,1012,security.criminalip.com,"52.3740,4.8897",Europe/Amsterdam
582,104.152.52.38,3163,AS14987 Rethem Hosting LLC,Chicago,US,Illinois,60666,internettl.org,"41.8500,-87.6500",America/Chicago
583,104.152.52.26,3163,AS14987 Rethem Hosting LLC,Chicago,US,Illinois,60666,internettl.org,"41.8500,-87.6500",America/Chicago
584,85.209.0.101,3159,AS207569 Ihor Hosting LLC,Moscow,RU,Moscow,101000,0,"55.7522,37.6156",Europe/Moscow
585,51.222.72.146,3150,AS16276 OVH SAS,Montréal,CA,Quebec,H3A,0,"45.5040,-73.5747",America/Toronto
586,67.160.18.234,3146,"AS33650 Comcast Cable Communications, LLC",Mount Vernon,US,Washington,98273,c-67-160-18-234.hsd1.wa.comcast.net,"48.4212,-122.3341",America/Los_Angeles
587,89.248.168.220,3145,AS202425 IP Volume inc,Amsterdam,NL,North Holland,1012,security.criminalip.com,"52.3740,4.8897",Europe/Amsterdam
588,103.221.223.15,3143,AS18403 The Corporation for Financing & Promoting Technology,Ho Chi Minh City,VN,Ho Chi Minh,71606,0,"10.8230,106.6296",Asia/Ho_Chi_Minh
589,80.82.78.100,3141,AS202425 IP Volume inc,Amsterdam,NL,North Holland,1012,security.criminalip.com,"52.3740,4.8897",Europe/Amsterdam
590,91.200.101.75,3140,AS30823 combahton GmbH,Frankfurt am Main,DE,Hesse,60311,webserver5.deinserverhost.de,"50.1155,8.6842",Europe/Berlin
591,185.39.11.32,3122,AS62355 Network Dedicated SAS,Mannheim,DE,Baden-Württemberg,68159,0,"49.4891,8.4669",Europe/Berlin
592,5.101.166.83,3105,AS199610 marbis GmbH,Frankfurt am Main,DE,Hesse,60311,0,"50.1155,8.6842",Europe/Berlin
593,185.216.140.31,3082,AS204655 Novogara LTD,Amsterdam,NL,North Holland,1012,security.criminalip.com,"52.3740,4.8897",Europe/Amsterdam
594,78.35.14.186,3075,AS8422 NetCologne Gesellschaft fur Telekommunikation mbH,Köln,DE,North Rhine-Westphalia,50676,0,"50.9333,6.9500",Europe/Berlin
595,202.152.1.89,3062,AS4800 Network Access Provider and Internet Service Provider,Jakarta,ID,Jakarta,0,idtbs-hosting4.idola.net.id,"-6.2146,106.8451",Asia/Jakarta
596,45.143.221.92,3060,AS213371 ABC Consultancy,Amsterdam,NL,North Holland,1012,0,"52.3740,4.8897",Europe/Amsterdam
597,193.57.40.68,3057,AS267784 Flyservers S.A.,Amsterdam,NL,North Holland,1012,0,"52.3740,4.8897",Europe/Amsterdam
598,73.185.150.150,3049,"AS7922 Comcast Cable Communications, LLC",Brooklyn Park,US,Minnesota,55429,c-73-185-150-150.hsd1.mn.comcast.net,"45.0941,-93.3563",America/Chicago
599,1.162.113.79,3045,AS3462 Data Communication Business Group,Taipei,TW,Taiwan,0,1-162-113-79.dynamic-ip.hinet.net,"25.0478,121.5319",Asia/Taipei
600,45.155.124.99,3033,AS57844 SPDNet Telekomunikasyon Hizmetleri Bilgi Teknolojileri Taahhut Sanayi Ve Ticaret A.S.,Istanbul,TR,Istanbul,34096,hosted-by.keyubu.com,"41.0138,28.9497",Europe/Istanbul
601,92.63.197.95,3030,AS204655 Novogara LTD,Novosibirsk,RU,Novosibirsk Oblast,630091,0,"55.0411,82.9344",Asia/Novosibirsk
602,71.205.10.120,3029,"AS7922 Comcast Cable Communications, LLC",Denver,US,Colorado,80208,c-71-205-10-120.hsd1.co.comcast.net,"39.7392,-104.9847",America/Denver
603,89.248.174.203,3016,AS202425 IP Volume inc,Amsterdam,NL,North Holland,1012,orange.scan.earth,"52.3740,4.8897",Europe/Amsterdam
604,92.63.196.33,3001,AS47981 Romanenko Stanislav Sergeevich,Amsterdam,NL,North Holland,1012,0,"52.3740,4.8897",Europe/Amsterdam
605,187.8.182.21,3000,AS10429 TELEFÔNICA BRASIL S.A,São Paulo,BR,São Paulo,01000-000,187-8-182-21.customer.tdatabrasil.net.br,"-23.5475,-46.6361",America/Sao_Paulo
606,89.248.168.217,2994,AS202425 IP Volume inc,Amsterdam,NL,North Holland,1012,security.criminalip.com,"52.3740,4.8897",Europe/Amsterdam
607,50.50.50.52,2991,"AS5650 Frontier Communications of America, Inc.",Wausau,US,Wisconsin,54403,static-50-50-50-52.arr01.waus.wi.frontiernet.net,"44.9529,-89.5318",America/Chicago
608,143.137.72.140,2983,AS262481 NEOREDE TELECOMUNICAÇÃO EIRELI - EPP,Florianópolis,BR,Santa Catarina,88000-000,neorede.com.br,"-27.5967,-48.5492",America/Sao_Paulo
609,170.245.14.2,2979,AS262481 NEOREDE TELECOMUNICAÇÃO EIRELI - EPP,Florianópolis,BR,Santa Catarina,88000-000,neorede.com.br,"-27.5967,-48.5492",America/Sao_Paulo
610,168.181.106.255,2974,AS265334 MULTI GLOBAL COM. E SERV. DE INFORMÁTICA LTDA,Brumado,BR,Bahia,46100-000,0,"-14.2036,-41.6653",America/Bahia
611,82.8.237.176,2971,AS5089 Virgin Media Limited,Liverpool,GB,England,L1,cpc155855-brmb13-2-0-cust431.1-3.cable.virginm.net,"53.4106,-2.9779",Europe/London
612,193.228.91.123,2963,0,Frederiksberg,DK,Capital Region,2000,0,"55.6794,12.5346",Europe/Copenhagen
613,54.38.41.65,2954,AS16276 OVH SAS,Strasbourg,FR,Grand Est,67000,web01.chrde.newlotusweb.net,"48.5839,7.7455",Europe/Paris
614,92.53.65.40,2940,AS49505 OOO Network of data-centers Selectel,Saint Petersburg,RU,St.-Petersburg,190000,0,"59.9386,30.3141",Europe/Moscow
615,10.72.2.240,2928,0,0,0,0,0,0,0,0
616,103.95.221.8,2924,AS4837 CHINA UNICOM China169 Backbone,Beijing,CN,Beijing,0,0,"39.9075,116.3972",Asia/Shanghai
617,157.230.14.146,2914,"AS14061 DigitalOcean, LLC",North Bergen,US,New Jersey,07047,0,"40.8043,-74.0121",America/New_York
618,10.72.2.35,2903,0,0,0,0,0,0,0,0
619,199.231.233.44,2892,"AS36231 Tempest Hosting, LLC",Independence,US,Missouri,64051,0,"39.0911,-94.4155",America/Chicago
620,5.135.245.225,2891,AS16276 OVH SAS,Roubaix,FR,Hauts-de-France,59051 CEDEX 1,ip225.ip-5-135-245.eu,"50.6942,3.1746",Europe/Paris
621,10.72.2.11,2885,0,0,0,0,0,0,0,0
622,185.176.27.238,2873,0,Krasnoobsk,RU,Novosibirsk Oblast,630105,0,"54.8490,83.1072",Asia/Novosibirsk
623,23.243.154.69,2873,AS20001 Charter Communications Inc,Gardena,US,California,90247,cpe-23-243-154-69.socal.res.rr.com,"33.8884,-118.3090",America/Los_Angeles
624,138.99.216.112,2872,AS43350 NForce Entertainment B.V.,Krimpen aan den IJssel,NL,South Holland,2923,0,"51.9167,4.6028",Europe/Amsterdam
625,98.193.60.121,2867,"AS7922 Comcast Cable Communications, LLC",Chicago,US,Illinois,60666,c-98-193-60-121.hsd1.il.comcast.net,"41.8500,-87.6500",America/Chicago
626,185.193.91.126,2864,AS44446 OOO SibirInvest,Odessa,UA,Odessa,65000,0,"46.4857,30.7438",Europe/Kiev
627,205.205.150.57,2862,"AS701 MCI Communications Services, Inc. d/b/a Verizon Business",Ashburn,US,Virginia,20147,0,"39.0373,-77.4805",America/New_York
628,23.236.62.147,2856,AS15169 Google LLC,Council Bluffs,US,Iowa,51502,147.62.236.23.bc.googleusercontent.com,"41.2619,-95.8608",America/Chicago
629,66.240.205.34,2848,"AS10439 CariNet, Inc.",Twentynine Palms,US,California,92277,malware-hunter.census.shodan.io,"34.1356,-116.0542",America/Los_Angeles
630,14.135.120.5,2842,AS4134 CHINANET-BACKBONE,Hangzhou,CN,Zhejiang,0,0,"30.2936,120.1614",Asia/Shanghai
631,205.205.150.5,2837,"AS701 MCI Communications Services, Inc. d/b/a Verizon Business",Boisbriand,CA,Quebec,J7H,0,"45.6209,-73.8728",America/Toronto
632,24.145.39.25,2836,"AS11776 Atlantic Broadband Finance, LLC",Aiken,US,South Carolina,29802,d-24-145-39-25.sc.cpe.atlanticbb.net,"33.5604,-81.7195",America/New_York
633,134.209.63.140,2830,"AS14061 DigitalOcean, LLC",Santa Clara,US,California,95051,0,"37.3483,-121.9844",America/Los_Angeles
634,45.9.62.46,2824,AS197540 netcup GmbH,Münster,DE,North Rhine-Westphalia,48079,v2202008126761124453.megasrv.de,"51.9624,7.6257",Europe/Berlin
635,194.26.25.106,2820,AS63018 Dedicated.com,Los Angeles,US,California,90009,0,"34.0522,-118.2437",America/Los_Angeles
636,45.145.67.226,2820,AS50340 OOO Network of data-centers Selectel,Moscow,RU,Moscow,101000,0,"55.7522,37.6156",Europe/Moscow
637,185.153.199.145,2807,AS49877 RM Engineering LLC,Moscow,RU,Moscow,101000,server-185-153-199-145.cloudedic.net,"55.7522,37.6156",Europe/Moscow
638,52.114.76.114,2800,AS8075 Microsoft Corporation,Dublin,IE,Leinster,D02,0,"53.3331,-6.2489",Europe/Dublin
639,37.10.124.225,2796,AS199610 marbis GmbH,Los Angeles,US,California,90009,0,"34.0522,-118.2437",America/Los_Angeles
640,103.95.221.28,2763,AS4837 CHINA UNICOM China169 Backbone,Beijing,CN,Beijing,0,0,"39.9075,116.3972",Asia/Shanghai
641,10.72.2.5,2752,0,0,0,0,0,0,0,0
642,89.248.168.176,2750,AS202425 IP Volume inc,Amsterdam,NL,North Holland,1012,security.criminalip.com,"52.3740,4.8897",Europe/Amsterdam
643,172.58.172.137,2743,"AS21928 T-Mobile USA, Inc.",Orlando,US,Florida,32802,0,"28.5383,-81.3792",America/New_York
644,107.11.162.20,2739,AS10796 Charter Communications Inc,Lancaster,US,Ohio,43130,cpe-107-11-162-20.columbus.res.rr.com,"39.7137,-82.5993",America/New_York
645,188.165.29.223,2713,AS16276 OVH SAS,Gravelines,FR,Hauts-de-France,59820,ip223.ip-188-165-29.eu,"50.9865,2.1281",Europe/Paris
646,92.63.197.71,2699,AS204655 Novogara LTD,Novosibirsk,RU,Novosibirsk Oblast,630091,0,"55.0411,82.9344",Asia/Novosibirsk
647,103.145.13.144,2697,AS213371 ABC Consultancy,Zwolle,NL,Overijssel,8035,0,"52.5538,6.1537",Europe/Amsterdam
648,131.108.137.64,2694,AS61674 SPEED WIRELESS SERVICOS DE COMUNICACAO MULTIMIDIA,Manaus,BR,Amazonas,69000-000,dhcp-131-108-137-64-speednetworks.com.br,"-3.1019,-60.0250",America/Manaus
649,70.180.236.240,2691,AS22773 Cox Communications Inc.,Las Vegas,US,Nevada,89111,ip70-180-236-240.lv.lv.cox.net,"36.1750,-115.1372",America/Los_Angeles
650,85.209.0.252,2683,AS207569 Ihor Hosting LLC,Moscow,RU,Moscow,101000,0,"55.7522,37.6156",Europe/Moscow
651,100.37.231.46,2677,"AS701 MCI Communications Services, Inc. d/b/a Verizon Business",Manhattan,US,New York,10024,pool-100-37-231-46.nycmny.fios.verizon.net,"40.7834,-73.9663",America/New_York
652,195.88.82.207,2674,"AS5603 Telekom Slovenije, d.d.",Ljubljana,SI,Ljubljana,1500,0,"46.0511,14.5051",Europe/Ljubljana
653,176.113.115.214,2668,AS49505 OOO Network of data-centers Selectel,Moscow,RU,Moscow,101000,0,"55.7522,37.6156",Europe/Moscow
654,80.82.77.139,2663,AS202425 IP Volume inc,Amsterdam,NL,North Holland,1012,dojo.census.shodan.io,"52.3740,4.8897",Europe/Amsterdam
655,185.168.130.178,2661,AS49720 Gigacloud LLC,Kyiv,UA,Kyiv City,03027,185-168-130-178.gigacloud.ua,"50.4547,30.5238",Europe/Kiev
656,45.14.45.130,2654,AS35913 DediPath,Los Angeles,US,California,90009,0,"34.0522,-118.2437",America/Los_Angeles
657,37.49.229.202,2654,AS213371 ABC Consultancy,Amsterdam,NL,North Holland,1012,0,"52.3740,4.8897",Europe/Amsterdam
658,103.114.105.180,2654,AS135905 VIETNAM POSTS AND TELECOMMUNICATIONS GROUP,Ho Chi Minh City,VN,Ho Chi Minh,71606,0,"10.8230,106.6296",Asia/Ho_Chi_Minh
659,63.33.84.206,2652,"AS16509 Amazon.com, Inc.",Dublin,IE,Leinster,D02,ec2-63-33-84-206.eu-west-1.compute.amazonaws.com,"53.3331,-6.2489",Europe/Dublin
660,10.72.2.18,2643,0,0,0,0,0,0,0,0
661,185.56.80.54,2640,AS43350 NForce Entertainment B.V.,Krimpen aan den IJssel,NL,South Holland,2923,friendrichard.com,"51.9167,4.6028",Europe/Amsterdam
662,10.72.2.24,2630,0,0,0,0,0,0,0,0
663,85.209.0.253,2618,AS207569 Ihor Hosting LLC,Moscow,RU,Moscow,101000,0,"55.7522,37.6156",Europe/Moscow
664,46.30.215.222,2613,AS51468 One.com A/S,Copenhagen,DK,Capital Region,0917,webcluster1.webpod8-cph3.one.com,"55.6759,12.5655",Europe/Copenhagen
665,80.82.77.33,2604,AS202425 IP Volume inc,Amsterdam,NL,North Holland,1012,sky.census.shodan.io,"52.3740,4.8897",Europe/Amsterdam
666,51.89.182.214,2597,AS16276 OVH SAS,Amsterdam,NL,North Holland,1012,synstress.xyz,"52.3740,4.8897",Europe/Amsterdam
667,88.214.24.240,2594,AS43350 NForce Entertainment B.V.,Amsterdam,NL,North Holland,1012,0,"52.3740,4.8897",Europe/Amsterdam
668,185.153.196.126,2581,AS49877 RM Engineering LLC,Moscow,RU,Moscow,101000,server-185-153-196-126.cloudedic.net,"55.7522,37.6156",Europe/Moscow
669,192.99.250.209,2578,AS16276 OVH SAS,Montréal,CA,Quebec,H3B,montreal-game-2.octovpn.net,"45.5005,-73.5684",America/Toronto
670,207.154.241.101,2570,"AS14061 DigitalOcean, LLC",Frankfurt am Main,DE,Hesse,60311,0,"50.1155,8.6842",Europe/Berlin
671,162.248.94.246,2568,"AS32751 Nuclearfallout Enterprises, Inc.",Concord,US,California,94522,uskid.exophobian.com,"37.9780,-122.0311",America/Los_Angeles
672,158.69.102.9,2566,AS16276 OVH SAS,Toronto,CA,Ontario,M5N,mysql2.lunanode.net,"43.7001,-79.4163",America/Toronto
673,10.72.2.186,2565,0,0,0,0,0,0,0,0
674,174.106.68.57,2561,AS11426 Charter Communications Inc,Charlotte,US,North Carolina,28208,cpe-174-106-68-57.carolina.res.rr.com,"35.2358,-80.8964",America/New_York
675,51.161.98.212,2558,AS16276 OVH SAS,Montréal,CA,Quebec,H3A,ovh-ca.ddosfiltering.net,"45.5040,-73.5747",America/Toronto
676,10.72.2.26,2558,0,0,0,0,0,0,0,0
677,35.186.224.25,2543,AS15169 Google LLC,Kansas City,US,Missouri,64121,25.224.186.35.bc.googleusercontent.com,"39.0997,-94.5786",America/Chicago
678,178.128.149.181,2538,"AS14061 DigitalOcean, LLC",North Bergen,US,New Jersey,07047,0,"40.8043,-74.0121",America/New_York
679,185.176.27.62,2537,0,Krasnoobsk,RU,Novosibirsk Oblast,630105,0,"54.8490,83.1072",Asia/Novosibirsk
680,103.99.2.190,2534,AS135905 VIETNAM POSTS AND TELECOMMUNICATIONS GROUP,Hanoi,VN,Hanoi,10000,0,"21.0245,105.8412",Asia/Bangkok
681,51.89.188.15,2532,AS16276 OVH SAS,Baildon,GB,England,BD17,ip15.ip-51-89-188.eu,"53.8471,-1.7878",Europe/London
682,64.31.8.10,2519,"AS46475 Limestone Networks, Inc.",San Jose,US,California,95103,10-8-31-64.static.reverse.host-co.in,"37.3394,-121.8950",America/Los_Angeles
683,10.72.2.46,2513,0,0,0,0,0,0,0,0
684,37.10.127.228,2511,AS199610 marbis GmbH,Los Angeles,US,California,90009,0,"34.0522,-118.2437",America/Los_Angeles
685,93.174.93.68,2509,AS202425 IP Volume inc,Amsterdam,NL,North Holland,1012,0,"52.3740,4.8897",Europe/Amsterdam
686,185.158.112.62,2506,AS44812 IP SERVER LLC,Moscow,RU,Moscow,101000,112-62.static.spheral.ru,"55.7522,37.6156",Europe/Moscow
687,67.227.152.142,2503,"AS32244 Liquid Web, L.L.C",Lansing,US,Michigan,48901,0,"42.7325,-84.5555",America/Detroit
688,206.189.181.12,2499,"AS14061 DigitalOcean, LLC",North Bergen,US,New Jersey,07047,0,"40.8043,-74.0121",America/New_York
689,79.124.62.55,2489,AS59900 Balkan Internet Exchange Ltd,Isperih,BG,Razgrad,7400,0,"43.7167,26.8333",Europe/Sofia
690,139.99.191.227,2488,AS16276 OVH SAS,Sydney,AU,New South Wales,1001,australiashared.tacovpns.online,"-33.8678,151.2073",Australia/Sydney
691,52.114.88.88,2481,AS8075 Microsoft Corporation,London,GB,England,EC3P,0,"51.5085,-0.1257",Europe/London
692,45.148.10.186,2477,AS48090 PPTECHNOLOGY LIMITED,Amsterdam,NL,North Holland,1012,0,"52.3740,4.8897",Europe/Amsterdam
693,10.72.2.245,2473,0,0,0,0,0,0,0,0
694,10.72.2.29,2470,0,0,0,0,0,0,0,0
695,71.6.199.23,2466,"AS10439 CariNet, Inc.",San Diego,US,California,92101,einstein.census.shodan.io,"32.7157,-117.1647",America/Los_Angeles
696,85.209.0.251,2464,AS207569 Ihor Hosting LLC,Moscow,RU,Moscow,101000,0,"55.7522,37.6156",Europe/Moscow
697,109.49.183.254,2463,"AS2860 NOS COMUNICACOES, S.A.",Lisbon,PT,Lisbon,1000-001,a109-49-183-254.cpe.netcabo.pt,"38.7167,-9.1333",Europe/Lisbon
698,63.33.102.1,2462,"AS16509 Amazon.com, Inc.",Dublin,IE,Leinster,D02,ec2-63-33-102-1.eu-west-1.compute.amazonaws.com,"53.3331,-6.2489",Europe/Dublin
699,35.137.116.102,2460,"AS33363 Charter Communications, Inc",Hudson,US,Florida,34667,035-137-116-102.dhcp.bhn.net,"28.3648,-82.6757",America/New_York
700,51.222.71.16,2459,AS16276 OVH SAS,Vaughan,CA,Ontario,L6A,ip16.ip-51-222-71.net,"43.8361,-79.4983",America/Toronto
701,185.143.223.241,2431,AS204718 Information Technologies LLC,Amsterdam,NL,North Holland,1012,0,"52.3740,4.8897",Europe/Amsterdam
702,103.145.13.18,2423,AS213371 ABC Consultancy,Zwolle,NL,Overijssel,8035,0,"52.5538,6.1537",Europe/Amsterdam
703,139.180.140.153,2407,"AS20473 Choopa, LLC",Singapore,SG,Singapore,048508,139.180.140.153.vultr.com,"1.2897,103.8501",Asia/Singapore
704,173.22.61.113,2406,AS30036 Mediacom Communications Corp,Des Moines,US,Iowa,50312,173-22-61-113.client.mchsi.com,"41.5855,-93.6719",America/Chicago
705,85.209.0.103,2403,AS207569 Ihor Hosting LLC,Moscow,RU,Moscow,101000,0,"55.7522,37.6156",Europe/Moscow
706,10.72.2.103,2396,0,0,0,0,0,0,0,0
707,45.145.67.182,2385,AS50340 OOO Network of data-centers Selectel,Moscow,RU,Moscow,101000,0,"55.7522,37.6156",Europe/Moscow
708,10.72.2.13,2384,0,0,0,0,0,0,0,0
709,81.242.180.16,2382,AS5432 Proximus NV,Liège,BE,Wallonia,4000,16.180-242-81.adsl-dyn.isp.belgacom.be,"50.6337,5.5675",Europe/Brussels
710,89.248.174.193,2375,AS202425 IP Volume inc,Amsterdam,NL,North Holland,1012,security.criminalip.com,"52.3740,4.8897",Europe/Amsterdam
711,24.27.36.68,2374,AS11427 Charter Communications Inc,Round Rock,US,Texas,78664,cpe-24-27-36-68.austin.res.rr.com,"30.5145,-97.6680",America/Chicago
712,193.32.163.108,2372,AS47890 UNMANAGED LTD,Harrow,GB,England,HA2,0,"51.5784,-0.3321",Europe/London
713,193.27.228.153,2360,AS49505 OOO Network of data-centers Selectel,Moscow,RU,Moscow,101000,0,"55.7522,37.6156",Europe/Moscow
714,177.86.127.245,2356,AS52571 G2G COM PROD ELETRO E SERV LTDA,São Paulo,BR,São Paulo,01000-000,0,"-23.5475,-46.6361",America/Sao_Paulo
715,172.21.0.5,2350,0,0,0,0,0,0,0,0
716,172.21.0.4,2343,0,0,0,0,0,0,0,0
717,125.64.94.133,2341,AS38283 CHINANET SiChuan Telecom Internet Data Center,Hangzhou,CN,Zhejiang,0,0,"30.2936,120.1614",Asia/Shanghai
718,196.203.244.145,2340,AS2609 Tunisia BackBone AS,Tunis,TN,Tūnis,0,mailmobile.tunisietelecom.tn,"36.8190,10.1658",Africa/Tunis
719,173.231.55.10,2332,"AS18450 WebNX, Inc.",Salt Lake City,US,Utah,84138,173-231-55-10.hosted.static.webnx.com,"40.7608,-111.8911",America/Denver
720,198.251.81.81,2332,AS53667 FranTech Solutions,Olive Branch,US,Mississippi,38654,sidekiq01.lgbtqia.is,"34.9618,-89.8295",America/Chicago
721,193.27.228.188,2319,AS49505 OOO Network of data-centers Selectel,Moscow,RU,Moscow,101000,0,"55.7522,37.6156",Europe/Moscow
722,61.219.11.153,2305,AS3462 Data Communication Business Group,Taipei,TW,Taiwan,0,61-219-11-153.hinet-ip.hinet.net,"25.0478,121.5319",Asia/Taipei
723,10.72.2.133,2305,0,0,0,0,0,0,0,0
724,94.232.46.20,2298,AS39465 Regional Commerce Centre Ugavia OJSC,Moscow,RU,Moscow,127224,0,"55.7522,37.6156",Europe/Moscow
725,170.245.13.70,2289,AS262481 NEOREDE TELECOMUNICAÇÃO EIRELI - EPP,Biguaçu,BR,Santa Catarina,88160-000,neorede.com.br,"-27.4942,-48.6556",America/Sao_Paulo
726,68.229.132.208,2277,AS22773 Cox Communications Inc.,Lafayette,US,Louisiana,70502,ip68-229-132-208.lf.br.cox.net,"30.2241,-92.0198",America/Chicago
727,10.72.2.76,2273,0,0,0,0,0,0,0,0
728,93.174.92.204,2270,AS202425 IP Volume inc,Amsterdam,NL,North Holland,1012,0,"52.3740,4.8897",Europe/Amsterdam
729,10.72.2.15,2265,0,0,0,0,0,0,0,0
730,34.246.125.171,2264,"AS16509 Amazon.com, Inc.",Dublin,IE,Leinster,D02,ec2-34-246-125-171.eu-west-1.compute.amazonaws.com,"53.3331,-6.2489",Europe/Dublin
731,34.107.221.82,2259,AS15169 Google LLC,Kansas City,US,Missouri,64121,82.221.107.34.bc.googleusercontent.com,"39.0997,-94.5786",America/Chicago
732,147.203.238.18,2259,"AS6130 American Internet Services, LLC.",Los Angeles,US,California,90009,0,"34.0522,-118.2437",America/Los_Angeles
733,208.54.172.121,2255,"AS19201 Eastex Telephone Cooperative, Inc.",Conroe,US,Texas,77301,208-54-172-121.dynamic.eastex.net,"30.3119,-95.4561",America/Chicago
734,72.224.190.107,2249,AS11351 Charter Communications Inc,Bucksport,US,Maine,04416,cpe-72-224-190-107.maine.res.rr.com,"44.5737,-68.7956",America/New_York
735,161.22.61.13,2243,AS262481 NEOREDE TELECOMUNICAÇÃO EIRELI - EPP,Florianópolis,BR,Santa Catarina,88000-000,neorede.com.br,"-27.5967,-48.5492",America/Sao_Paulo
736,74.120.14.31,2243,"AS398705 Censys, Inc.",Ashburn,US,Virginia,20149,scanner-02.ch1.censys-scanner.com,"39.0437,-77.4875",America/New_York
737,45.76.151.8,2235,"AS20473 Choopa, LLC",Singapore,SG,Singapore,048508,45.76.151.8.vultr.com,"1.2897,103.8501",Asia/Singapore
738,45.129.33.169,2224,AS202425 IP Volume inc,Berngau,DE,Bavaria,92361,0,"49.2500,11.4000",Europe/Berlin
739,45.125.65.83,2222,AS133398 Tele Asia Limited,Kaunas,LT,Kaunas,44001,0,"54.9027,23.9096",Europe/Vilnius
740,71.197.151.104,2220,"AS7922 Comcast Cable Communications, LLC",Seattle,US,Washington,98111,c-71-197-151-104.hsd1.wa.comcast.net,"47.6062,-122.3321",America/Los_Angeles
741,185.216.140.6,2220,AS204655 Novogara LTD,Amsterdam,NL,North Holland,1012,security.criminalip.com,"52.3740,4.8897",Europe/Amsterdam
742,74.120.14.27,2219,"AS398705 Censys, Inc.",Ashburn,US,Virginia,20149,scanner-02.ch1.censys-scanner.com,"39.0437,-77.4875",America/New_York
743,89.248.168.112,2217,AS202425 IP Volume inc,Amsterdam,NL,North Holland,1012,security.criminalip.com,"52.3740,4.8897",Europe/Amsterdam
744,10.72.2.32,2216,0,0,0,0,0,0,0,0
745,74.120.14.22,2213,"AS398705 Censys, Inc.",Ashburn,US,Virginia,20149,scanner-02.ch1.censys-scanner.com,"39.0437,-77.4875",America/New_York
746,74.120.14.17,2212,"AS398705 Censys, Inc.",Ashburn,US,Virginia,20149,scanner-02.ch1.censys-scanner.com,"39.0437,-77.4875",America/New_York
747,167.248.133.18,2212,"AS398722 Censys, Inc.",Ann Arbor,US,Michigan,48104,scanner-03.ch1.censys-scanner.com,"42.2694,-83.7282",America/Detroit
748,10.72.2.8,2209,0,0,0,0,0,0,0,0
749,10.75.4.2,2203,0,0,0,0,0,0,0,0
750,31.166.240.175,2200,AS35819 Bayanat Al-Oula For Network Services Limited Co.,Jeddah,SA,Mecca Region,0,0,"21.4901,39.1862",Asia/Riyadh
751,94.23.160.207,2197,AS16276 OVH SAS,Amsterdam,NL,North Holland,1012,0,"52.3740,4.8897",Europe/Amsterdam
752,167.248.133.20,2197,"AS398722 Censys, Inc.",Ann Arbor,US,Michigan,48104,scanner-03.ch1.censys-scanner.com,"42.2694,-83.7282",America/Detroit
753,80.82.77.227,2197,AS202425 IP Volume inc,Amsterdam,NL,North Holland,1012,security.criminalip.com,"52.3740,4.8897",Europe/Amsterdam
754,149.56.249.55,2195,AS16276 OVH SAS,Montréal,CA,Quebec,H2W,ip55.ip-149-56-249.net,"45.5088,-73.5878",America/Toronto
755,89.248.168.51,2194,AS202425 IP Volume inc,Amsterdam,NL,North Holland,1012,security.criminalip.com,"52.3740,4.8897",Europe/Amsterdam
756,167.248.133.25,2193,"AS398722 Censys, Inc.",Ann Arbor,US,Michigan,48104,scanner-03.ch1.censys-scanner.com,"42.2694,-83.7282",America/Detroit
757,167.248.133.27,2192,"AS398722 Censys, Inc.",Ann Arbor,US,Michigan,48104,scanner-03.ch1.censys-scanner.com,"42.2694,-83.7282",America/Detroit
758,98.223.19.200,2190,"AS7922 Comcast Cable Communications, LLC",Gary,US,Indiana,46402,c-98-223-19-200.hsd1.in.comcast.net,"41.5934,-87.3464",America/Chicago
759,151.80.230.127,2186,AS16276 OVH SAS,Eaunes,FR,Occitanie,31600,fbi.so,"43.4255,1.3535",Europe/Paris
760,69.162.99.42,2185,"AS46475 Limestone Networks, Inc.",El Paso,US,Texas,79941,42-99-162-69.static.reverse.lstn.net,"31.7587,-106.4869",America/Denver
761,167.248.133.19,2184,"AS398722 Censys, Inc.",Ann Arbor,US,Michigan,48104,scanner-03.ch1.censys-scanner.com,"42.2694,-83.7282",America/Detroit
762,62.4.16.113,2182,AS12876 ONLINE S.A.S.,Paris,FR,Île-de-France,75000,dedishops.com,"48.8534,2.3488",Europe/Paris
763,37.10.124.103,2174,AS199610 marbis GmbH,Los Angeles,US,California,90009,0,"34.0522,-118.2437",America/Los_Angeles
764,74.120.14.24,2173,"AS398705 Censys, Inc.",Ashburn,US,Virginia,20149,scanner-02.ch1.censys-scanner.com,"39.0437,-77.4875",America/New_York
765,213.202.230.190,2166,AS24961 myLoc managed IT AG,Oberdorla,DE,Thuringia,99986,ma199.mars.servdiscount-customer.com,"51.1658,10.4216",Europe/Berlin
766,74.120.14.23,2164,"AS398705 Censys, Inc.",Ashburn,US,Virginia,20149,scanner-02.ch1.censys-scanner.com,"39.0437,-77.4875",America/New_York
767,167.248.133.28,2161,"AS398722 Censys, Inc.",Ann Arbor,US,Michigan,48104,scanner-03.ch1.censys-scanner.com,"42.2694,-83.7282",America/Detroit
768,74.120.14.18,2161,"AS398705 Censys, Inc.",Ashburn,US,Virginia,20149,scanner-02.ch1.censys-scanner.com,"39.0437,-77.4875",America/New_York
769,177.53.240.37,2159,AS262481 NEOREDE TELECOMUNICAÇÃO EIRELI - EPP,Florianópolis,BR,Santa Catarina,88000-000,neorede.com.br,"-27.5967,-48.5492",America/Sao_Paulo
770,195.54.167.89,2158,AS49505 OOO Network of data-centers Selectel,Saint Petersburg,RU,St.-Petersburg,190000,0,"59.9386,30.3141",Europe/Moscow
771,194.87.139.144,2157,AS24961 myLoc managed IT AG,Düsseldorf,DE,North Rhine-Westphalia,40212,0,"51.2217,6.7762",Europe/Berlin
772,167.248.133.26,2153,"AS398722 Censys, Inc.",Ann Arbor,US,Michigan,48104,scanner-03.ch1.censys-scanner.com,"42.2694,-83.7282",America/Detroit
773,74.120.14.16,2151,"AS398705 Censys, Inc.",Ashburn,US,Virginia,20149,scanner-02.ch1.censys-scanner.com,"39.0437,-77.4875",America/New_York
774,74.120.14.30,2148,"AS398705 Censys, Inc.",Ashburn,US,Virginia,20149,scanner-02.ch1.censys-scanner.com,"39.0437,-77.4875",America/New_York
775,167.248.133.23,2147,"AS398722 Censys, Inc.",Ann Arbor,US,Michigan,48104,scanner-03.ch1.censys-scanner.com,"42.2694,-83.7282",America/Detroit
776,167.248.133.29,2145,"AS398722 Censys, Inc.",Ann Arbor,US,Michigan,48104,scanner-03.ch1.censys-scanner.com,"42.2694,-83.7282",America/Detroit
777,144.217.252.102,2145,AS16276 OVH SAS,Montréal,CA,Quebec,H3A,ns540824.ip-144-217-252.net,"45.5040,-73.5747",America/Toronto
778,74.120.14.29,2144,"AS398705 Censys, Inc.",Ashburn,US,Virginia,20149,scanner-02.ch1.censys-scanner.com,"39.0437,-77.4875",America/New_York
779,206.189.25.14,2133,"AS14061 DigitalOcean, LLC",London,GB,England,EC1A,hororoscopeapi.psychicguild.com,"51.5085,-0.1257",Europe/London
780,178.73.215.171,2132,AS42708 GleSYS AB,Stockholm,SE,Stockholm,100 05,178-73-215-171-static.glesys.net,"59.3294,18.0687",Europe/Stockholm
781,167.248.133.24,2130,"AS398722 Censys, Inc.",Ann Arbor,US,Michigan,48104,scanner-03.ch1.censys-scanner.com,"42.2694,-83.7282",America/Detroit
782,85.209.0.102,2126,AS207569 Ihor Hosting LLC,Moscow,RU,Moscow,101000,0,"55.7522,37.6156",Europe/Moscow
783,10.72.2.52,2125,0,0,0,0,0,0,0,0
784,74.120.14.20,2120,"AS398705 Censys, Inc.",Ashburn,US,Virginia,20149,scanner-02.ch1.censys-scanner.com,"39.0437,-77.4875",America/New_York
785,10.72.2.71,2120,0,0,0,0,0,0,0,0
786,10.72.2.110,2120,0,0,0,0,0,0,0,0
787,74.120.14.21,2120,"AS398705 Censys, Inc.",Ashburn,US,Virginia,20149,scanner-02.ch1.censys-scanner.com,"39.0437,-77.4875",America/New_York
788,167.248.133.21,2117,"AS398722 Censys, Inc.",Ann Arbor,US,Michigan,48104,scanner-03.ch1.censys-scanner.com,"42.2694,-83.7282",America/Detroit
789,74.120.14.26,2117,"AS398705 Censys, Inc.",Ashburn,US,Virginia,20149,scanner-02.ch1.censys-scanner.com,"39.0437,-77.4875",America/New_York
790,189.202.66.234,2114,AS28554 Cablemas Telecomunicaciones SA de CV,Tijuana,MX,Baja California,22703,189.202.66.234.cable.dyn.cableonline.com.mx,"32.5027,-117.0037",America/Tijuana
791,162.142.125.28,2112,"AS398324 Censys, Inc.",Columbus,US,Ohio,43215,scanner-01.ch1.censys-scanner.com,"39.9612,-82.9988",America/New_York
792,162.142.125.74,2111,"AS398324 Censys, Inc.",Columbus,US,Ohio,43215,scanner-10.ch1.censys-scanner.com,"39.9612,-82.9988",America/New_York
793,45.143.221.50,2110,AS213371 ABC Consultancy,Amsterdam,NL,North Holland,1012,0,"52.3740,4.8897",Europe/Amsterdam
794,185.193.91.62,2110,AS44446 OOO SibirInvest,Odessa,UA,Odessa,65000,0,"46.4857,30.7438",Europe/Kiev
795,172.104.242.173,2109,"AS63949 Linode, LLC",Frankfurt am Main,DE,Hesse,60311,winnti-scanner-victims-will-be-notified.threatsinkhole.com,"50.1155,8.6842",Europe/Berlin
796,149.56.28.100,2109,AS16276 OVH SAS,Montréal,CA,Quebec,H3A,ns531101.ip-149-56-28.net,"45.5040,-73.5747",America/Toronto
797,167.248.133.31,2108,"AS398722 Censys, Inc.",Ann Arbor,US,Michigan,48104,scanner-03.ch1.censys-scanner.com,"42.2694,-83.7282",America/Detroit
798,10.72.2.109,2108,0,0,0,0,0,0,0,0
799,167.248.133.30,2107,"AS398722 Censys, Inc.",Ann Arbor,US,Michigan,48104,scanner-03.ch1.censys-scanner.com,"42.2694,-83.7282",America/Detroit
800,130.127.255.226,2103,AS12148 Clemson University,Clemson,US,South Carolina,29632,0,"34.6834,-82.8374",America/New_York
801,74.120.14.19,2100,"AS398705 Censys, Inc.",Ashburn,US,Virginia,20149,scanner-02.ch1.censys-scanner.com,"39.0437,-77.4875",America/New_York
802,167.248.133.17,2097,"AS398722 Censys, Inc.",Ann Arbor,US,Michigan,48104,scanner-03.ch1.censys-scanner.com,"42.2694,-83.7282",America/Detroit
803,167.248.133.66,2092,"AS398722 Censys, Inc.",Ann Arbor,US,Michigan,48104,scanner-12.ch1.censys-scanner.com,"42.2694,-83.7282",America/Detroit
804,93.174.95.106,2092,AS202425 IP Volume inc,Amsterdam,NL,North Holland,1012,battery.census.shodan.io,"52.3740,4.8897",Europe/Amsterdam
805,94.102.51.95,2090,AS202425 IP Volume inc,Amsterdam,NL,North Holland,1012,no-reverse-dns-configured.com,"52.3740,4.8897",Europe/Amsterdam
806,62.171.145.171,2090,AS51167 Contabo GmbH,Mittweida,DE,Saxony,09648,vmd62879.contaboserver.net,"50.9862,12.9754",Europe/Berlin
807,162.142.125.78,2088,"AS398324 Censys, Inc.",Columbus,US,Ohio,43215,scanner-10.ch1.censys-scanner.com,"39.9612,-82.9988",America/New_York
808,167.248.133.16,2087,"AS398722 Censys, Inc.",Ann Arbor,US,Michigan,48104,scanner-03.ch1.censys-scanner.com,"42.2694,-83.7282",America/Detroit
809,162.142.125.27,2086,"AS398324 Censys, Inc.",Columbus,US,Ohio,43215,scanner-01.ch1.censys-scanner.com,"39.9612,-82.9988",America/New_York
810,72.39.42.4,2086,AS7992 Cogeco Cable,Brockville,CA,Ontario,K6V,d72-39-42-4.home1.cgocable.net,"44.5913,-75.6870",America/Toronto
811,74.120.14.69,2081,"AS398705 Censys, Inc.",Ashburn,US,Virginia,20149,scanner-11.ch1.censys-scanner.com,"39.0437,-77.4875",America/New_York
812,103.145.13.118,2080,AS213371 ABC Consultancy,Zwolle,NL,Overijssel,8035,0,"52.5538,6.1537",Europe/Amsterdam
813,87.251.74.16,2080,AS204490 Kontel LLC,Moscow,RU,Moscow,101000,0,"55.7522,37.6156",Europe/Moscow
814,167.248.133.22,2076,"AS398722 Censys, Inc.",Ann Arbor,US,Michigan,48104,scanner-03.ch1.censys-scanner.com,"42.2694,-83.7282",America/Detroit
815,192.99.248.214,2075,AS16276 OVH SAS,Montréal,CA,Quebec,H3A,ip214.ip-192-99-248.net,"45.5040,-73.5747",America/Toronto
816,81.161.63.100,2069,AS202984 Chernyshov Aleksandr Aleksandrovich,Moscow,RU,Moscow,101000,0,"55.7522,37.6156",Europe/Moscow
817,162.142.125.18,2069,"AS398324 Censys, Inc.",Columbus,US,Ohio,43215,scanner-01.ch1.censys-scanner.com,"39.9612,-82.9988",America/New_York
818,51.15.9.15,2066,AS12876 ONLINE S.A.S.,Haarlem,NL,North Holland,2011,51-15-9-15.rev.poneytelecom.eu,"52.3808,4.6368",Europe/Amsterdam
819,103.133.223.26,2062,AS137331 Cloud Teknologi Nusantara .CV,Rengasdengklok,ID,West Java,0,jkt04.rapidwhm.com,"-6.1592,107.2981",Asia/Jakarta
820,74.120.14.25,2061,"AS398705 Censys, Inc.",Ashburn,US,Virginia,20149,scanner-02.ch1.censys-scanner.com,"39.0437,-77.4875",America/New_York
821,74.120.14.28,2060,"AS398705 Censys, Inc.",Ashburn,US,Virginia,20149,scanner-02.ch1.censys-scanner.com,"39.0437,-77.4875",America/New_York
822,194.26.25.13,2057,AS63018 Dedicated.com,Los Angeles,US,California,90009,0,"34.0522,-118.2437",America/Los_Angeles
823,162.142.125.17,2057,"AS398324 Censys, Inc.",Columbus,US,Ohio,43215,scanner-01.ch1.censys-scanner.com,"39.9612,-82.9988",America/New_York
824,162.142.125.25,2056,"AS398324 Censys, Inc.",Columbus,US,Ohio,43215,scanner-01.ch1.censys-scanner.com,"39.9612,-82.9988",America/New_York
825,162.142.125.31,2053,"AS398324 Censys, Inc.",Columbus,US,Ohio,43215,scanner-01.ch1.censys-scanner.com,"39.9612,-82.9988",America/New_York
826,10.72.2.23,2053,0,0,0,0,0,0,0,0
827,162.142.125.16,2052,"AS398324 Censys, Inc.",Columbus,US,Ohio,43215,scanner-01.ch1.censys-scanner.com,"39.9612,-82.9988",America/New_York
828,162.142.125.20,2051,"AS398324 Censys, Inc.",Columbus,US,Ohio,43215,scanner-01.ch1.censys-scanner.com,"39.9612,-82.9988",America/New_York
829,54.39.40.120,2050,AS16276 OVH SAS,Montréal,CA,Quebec,H3A,ip120.ip-54-39-40.net,"45.5040,-73.5747",America/Toronto
830,5.182.24.11,2047,AS43264 RTO-DON LLC,Shakhty,RU,Rostov,346500,0,"47.7091,40.2144",Europe/Moscow
831,167.248.133.70,2047,"AS398722 Censys, Inc.",Ann Arbor,US,Michigan,48104,scanner-12.ch1.censys-scanner.com,"42.2694,-83.7282",America/Detroit
832,104.243.45.24,2047,AS23470 ReliableSite.Net LLC,New York City,US,New York,10004,0,"40.7143,-74.0060",America/New_York
833,162.142.125.24,2045,"AS398324 Censys, Inc.",Columbus,US,Ohio,43215,scanner-01.ch1.censys-scanner.com,"39.9612,-82.9988",America/New_York
834,162.142.125.21,2044,"AS398324 Censys, Inc.",Columbus,US,Ohio,43215,scanner-01.ch1.censys-scanner.com,"39.9612,-82.9988",America/New_York
835,162.142.125.64,2043,"AS398324 Censys, Inc.",Columbus,US,Ohio,43215,scanner-10.ch1.censys-scanner.com,"39.9612,-82.9988",America/New_York
836,162.142.125.66,2043,"AS398324 Censys, Inc.",Columbus,US,Ohio,43215,scanner-10.ch1.censys-scanner.com,"39.9612,-82.9988",America/New_York
837,167.248.133.64,2043,"AS398722 Censys, Inc.",Ann Arbor,US,Michigan,48104,scanner-12.ch1.censys-scanner.com,"42.2694,-83.7282",America/Detroit
838,162.142.125.67,2042,"AS398324 Censys, Inc.",Columbus,US,Ohio,43215,scanner-10.ch1.censys-scanner.com,"39.9612,-82.9988",America/New_York
839,89.100.227.195,2042,AS6830 Liberty Global B.V.,Dublin,IE,Leinster,D02,089-100-227195.ntlworld.ie,"53.3331,-6.2489",Europe/Dublin
840,103.145.13.188,2040,AS213371 ABC Consultancy,Zwolle,NL,Overijssel,8035,0,"52.5538,6.1537",Europe/Amsterdam
841,162.142.125.19,2036,"AS398324 Censys, Inc.",Columbus,US,Ohio,43215,scanner-01.ch1.censys-scanner.com,"39.9612,-82.9988",America/New_York
842,45.146.165.84,2035,AS49505 OOO Network of data-centers Selectel,Moscow,RU,Moscow,101000,0,"55.7522,37.6156",Europe/Moscow
843,94.102.56.210,2033,AS202425 IP Volume inc,Amsterdam,NL,North Holland,1012,0,"52.3740,4.8897",Europe/Amsterdam
844,74.120.14.78,2032,"AS398705 Censys, Inc.",Ashburn,US,Virginia,20149,scanner-11.ch1.censys-scanner.com,"39.0437,-77.4875",America/New_York
845,20.57.25.74,2032,AS8075 Microsoft Corporation,Boydton,US,Virginia,23917,0,"36.6676,-78.3875",America/New_York
846,162.142.125.71,2031,"AS398324 Censys, Inc.",Columbus,US,Ohio,43215,scanner-10.ch1.censys-scanner.com,"39.9612,-82.9988",America/New_York
847,162.142.125.22,2028,"AS398324 Censys, Inc.",Columbus,US,Ohio,43215,scanner-01.ch1.censys-scanner.com,"39.9612,-82.9988",America/New_York
848,216.58.213.78,2023,AS15169 Google LLC,Calne,GB,England,SN11,par21s18-in-f14.1e100.net,"51.4388,-2.0057",Europe/London
849,205.255.103.100,2022,"AS19905 NeuStar, Inc.",Birmingham,US,Alabama,35244,0,"33.3538,-86.8254",America/Chicago
850,167.248.133.79,2020,"AS398722 Censys, Inc.",Ann Arbor,US,Michigan,48104,scanner-12.ch1.censys-scanner.com,"42.2694,-83.7282",America/Detroit
851,125.46.11.67,2020,AS4837 CHINA UNICOM China169 Backbone,Zhengzhou,CN,Henan,0,0,"34.7578,113.6486",Asia/Shanghai
852,162.142.125.26,2019,"AS398324 Censys, Inc.",Columbus,US,Ohio,43215,scanner-01.ch1.censys-scanner.com,"39.9612,-82.9988",America/New_York
853,104.27.169.135,2016,"AS13335 Cloudflare, Inc.",San Francisco,US,California,94107,0,"37.7621,-122.3971",America/Los_Angeles
854,10.72.2.166,2016,0,0,0,0,0,0,0,0
855,17.57.146.20,2015,AS714 Apple Inc.,Cupertino,US,California,95014,0,"37.3230,-122.0322",America/Los_Angeles
856,162.142.125.30,2014,"AS398324 Censys, Inc.",Columbus,US,Ohio,43215,scanner-01.ch1.censys-scanner.com,"39.9612,-82.9988",America/New_York
857,74.120.14.74,2014,"AS398705 Censys, Inc.",Ashburn,US,Virginia,20149,scanner-11.ch1.censys-scanner.com,"39.0437,-77.4875",America/New_York
858,167.248.133.71,2013,"AS398722 Censys, Inc.",Ann Arbor,US,Michigan,48104,scanner-12.ch1.censys-scanner.com,"42.2694,-83.7282",America/Detroit
859,74.120.14.71,2013,"AS398705 Censys, Inc.",Ashburn,US,Virginia,20149,scanner-11.ch1.censys-scanner.com,"39.0437,-77.4875",America/New_York
860,89.179.141.211,2010,AS8402 PJSC Vimpelcom,Moscow,RU,Moscow,101000,0,"55.7522,37.6156",Europe/Moscow
861,162.142.125.23,2010,"AS398324 Censys, Inc.",Columbus,US,Ohio,43215,scanner-01.ch1.censys-scanner.com,"39.9612,-82.9988",America/New_York
862,93.174.91.187,2009,AS202425 IP Volume inc,Amsterdam,NL,North Holland,1012,0,"52.3740,4.8897",Europe/Amsterdam
863,162.142.125.79,2007,"AS398324 Censys, Inc.",Columbus,US,Ohio,43215,scanner-10.ch1.censys-scanner.com,"39.9612,-82.9988",America/New_York
864,167.248.133.67,2006,"AS398722 Censys, Inc.",Ann Arbor,US,Michigan,48104,scanner-12.ch1.censys-scanner.com,"42.2694,-83.7282",America/Detroit
865,167.248.133.74,2006,"AS398722 Censys, Inc.",Ann Arbor,US,Michigan,48104,scanner-12.ch1.censys-scanner.com,"42.2694,-83.7282",America/Detroit
866,51.255.109.168,2006,AS16276 OVH SAS,Paris,FR,Île-de-France,75000,leona.probe.onyphe.net,"48.8534,2.3488",Europe/Paris
867,157.240.20.52,2005,"AS32934 Facebook, Inc.",Menlo Park,US,California,94025,whatsapp-cdn-shv-02-frt3.fbcdn.net,"37.4538,-122.1822",America/Los_Angeles
868,162.142.125.76,2005,"AS398324 Censys, Inc.",Columbus,US,Ohio,43215,scanner-10.ch1.censys-scanner.com,"39.9612,-82.9988",America/New_York
869,74.120.14.77,2003,"AS398705 Censys, Inc.",Ashburn,US,Virginia,20149,scanner-11.ch1.censys-scanner.com,"39.0437,-77.4875",America/New_York
870,167.248.133.76,2001,"AS398722 Censys, Inc.",Ann Arbor,US,Michigan,48104,scanner-12.ch1.censys-scanner.com,"42.2694,-83.7282",America/Detroit
871,74.120.14.68,2001,"AS398705 Censys, Inc.",Ashburn,US,Virginia,20149,scanner-11.ch1.censys-scanner.com,"39.0437,-77.4875",America/New_York
872,80.82.65.82,2000,AS202425 IP Volume inc,Amsterdam,NL,North Holland,1012,scanner.openportstats.com,"52.3740,4.8897",Europe/Amsterdam
873,193.27.229.183,1997,AS49505 OOO Network of data-centers Selectel,Saint Petersburg,RU,St.-Petersburg,190000,0,"59.9386,30.3141",Europe/Moscow
874,162.142.125.65,1997,"AS398324 Censys, Inc.",Columbus,US,Ohio,43215,scanner-10.ch1.censys-scanner.com,"39.9612,-82.9988",America/New_York
875,10.72.2.119,1992,0,0,0,0,0,0,0,0
876,167.248.133.72,1991,"AS398722 Censys, Inc.",Ann Arbor,US,Michigan,48104,scanner-12.ch1.censys-scanner.com,"42.2694,-83.7282",America/Detroit
877,167.248.133.75,1991,"AS398722 Censys, Inc.",Ann Arbor,US,Michigan,48104,scanner-12.ch1.censys-scanner.com,"42.2694,-83.7282",America/Detroit
878,74.120.14.75,1991,"AS398705 Censys, Inc.",Ashburn,US,Virginia,20149,scanner-11.ch1.censys-scanner.com,"39.0437,-77.4875",America/New_York
879,10.75.2.8,1990,0,0,0,0,0,0,0,0
880,45.134.26.227,1990,AS49505 OOO Network of data-centers Selectel,Moscow,RU,Moscow,101000,0,"55.7522,37.6156",Europe/Moscow
881,193.27.228.27,1989,AS49505 OOO Network of data-centers Selectel,Moscow,RU,Moscow,101000,0,"55.7522,37.6156",Europe/Moscow
882,24.255.17.125,1987,AS22773 Cox Communications Inc.,Tucson,US,Arizona,85702,ip24-255-17-125.tc.ph.cox.net,"32.2217,-110.9265",America/Phoenix
883,167.248.133.68,1980,"AS398722 Censys, Inc.",Ann Arbor,US,Michigan,48104,scanner-12.ch1.censys-scanner.com,"42.2694,-83.7282",America/Detroit
884,167.248.133.73,1980,"AS398722 Censys, Inc.",Ann Arbor,US,Michigan,48104,scanner-12.ch1.censys-scanner.com,"42.2694,-83.7282",America/Detroit
885,162.142.125.70,1979,"AS398324 Censys, Inc.",Columbus,US,Ohio,43215,scanner-10.ch1.censys-scanner.com,"39.9612,-82.9988",America/New_York
886,192.35.168.229,1979,AS237 Merit Network Inc.,Marquette,US,Michigan,49855,worker-14.sfj.censys-scanner.com,"46.5435,-87.3954",America/Detroit
887,167.248.133.69,1978,"AS398722 Censys, Inc.",Ann Arbor,US,Michigan,48104,scanner-12.ch1.censys-scanner.com,"42.2694,-83.7282",America/Detroit
888,162.142.125.73,1978,"AS398324 Censys, Inc.",Columbus,US,Ohio,43215,scanner-10.ch1.censys-scanner.com,"39.9612,-82.9988",America/New_York
889,162.142.125.75,1978,"AS398324 Censys, Inc.",Columbus,US,Ohio,43215,scanner-10.ch1.censys-scanner.com,"39.9612,-82.9988",America/New_York
890,74.120.14.72,1977,"AS398705 Censys, Inc.",Ashburn,US,Virginia,20149,scanner-11.ch1.censys-scanner.com,"39.0437,-77.4875",America/New_York
891,202.134.61.41,1977,AS38802 Azurance Limited,Kowloon,HK,Kowloon City,0,0,"22.3167,114.1833",Asia/Hong_Kong
892,167.248.133.65,1976,"AS398722 Censys, Inc.",Ann Arbor,US,Michigan,48104,scanner-12.ch1.censys-scanner.com,"42.2694,-83.7282",America/Detroit
893,10.72.2.65,1976,0,0,0,0,0,0,0,0
894,10.72.2.19,1976,0,0,0,0,0,0,0,0
895,45.129.33.80,1975,AS202425 IP Volume inc,Berngau,DE,Bavaria,92361,0,"49.2500,11.4000",Europe/Berlin
896,74.120.14.73,1973,"AS398705 Censys, Inc.",Ashburn,US,Virginia,20149,scanner-11.ch1.censys-scanner.com,"39.0437,-77.4875",America/New_York
897,10.72.2.215,1971,0,0,0,0,0,0,0,0
898,162.142.125.69,1970,"AS398324 Censys, Inc.",Columbus,US,Ohio,43215,scanner-10.ch1.censys-scanner.com,"39.9612,-82.9988",America/New_York
899,192.35.168.238,1969,AS237 Merit Network Inc.,Marquette,US,Michigan,49855,worker-14.sfj.censys-scanner.com,"46.5435,-87.3954",America/Detroit
900,2.57.122.186,1968,AS48090 PPTECHNOLOGY LIMITED,Meppel,NL,Drenthe,7941,0,"52.6958,6.1944",Europe/Amsterdam
901,10.72.2.210,1966,0,0,0,0,0,0,0,0
902,74.120.14.65,1965,"AS398705 Censys, Inc.",Ashburn,US,Virginia,20149,scanner-11.ch1.censys-scanner.com,"39.0437,-77.4875",America/New_York
903,178.79.191.8,1964,"AS63949 Linode, LLC",London,GB,England,EC1A,li417-8.members.linode.com,"51.5085,-0.1257",Europe/London
904,192.35.169.46,1964,AS237 Merit Network Inc.,Marquette,US,Michigan,49855,worker-17.sfj.censys-scanner.com,"46.5435,-87.3954",America/Detroit
905,45.148.121.28,1962,AS64425 SKB Enterprise B.V.,Amsterdam,NL,North Holland,1043,0,"52.3883,4.8335",Europe/Amsterdam
906,162.142.125.77,1960,"AS398324 Censys, Inc.",Columbus,US,Ohio,43215,scanner-10.ch1.censys-scanner.com,"39.9612,-82.9988",America/New_York
907,5.182.174.71,1960,AS60609 APFUTURA INTERNACIONAL SOLUCIONES SL,Girona,ES,Catalonia,17001,0,"41.9831,2.8249",Europe/Madrid
908,54.39.201.101,1958,AS16276 OVH SAS,Montréal,CA,Quebec,H2W,0,"45.5088,-73.5878",America/Toronto
909,192.35.169.35,1958,AS237 Merit Network Inc.,Marquette,US,Michigan,49855,worker-17.sfj.censys-scanner.com,"46.5435,-87.3954",America/Detroit
910,192.35.169.42,1957,AS237 Merit Network Inc.,Marquette,US,Michigan,49855,worker-17.sfj.censys-scanner.com,"46.5435,-87.3954",America/Detroit
911,162.142.125.72,1954,"AS398324 Censys, Inc.",Columbus,US,Ohio,43215,scanner-10.ch1.censys-scanner.com,"39.9612,-82.9988",America/New_York
912,167.248.133.77,1953,"AS398722 Censys, Inc.",Ann Arbor,US,Michigan,48104,scanner-12.ch1.censys-scanner.com,"42.2694,-83.7282",America/Detroit
913,192.35.168.239,1952,AS237 Merit Network Inc.,Marquette,US,Michigan,49855,worker-14.sfj.censys-scanner.com,"46.5435,-87.3954",America/Detroit
914,192.35.168.235,1950,AS237 Merit Network Inc.,Marquette,US,Michigan,49855,worker-14.sfj.censys-scanner.com,"46.5435,-87.3954",America/Detroit
915,167.248.133.78,1950,"AS398722 Censys, Inc.",Ann Arbor,US,Michigan,48104,scanner-12.ch1.censys-scanner.com,"42.2694,-83.7282",America/Detroit
916,192.35.168.233,1948,AS237 Merit Network Inc.,Marquette,US,Michigan,49855,worker-14.sfj.censys-scanner.com,"46.5435,-87.3954",America/Detroit
917,192.35.169.34,1944,AS237 Merit Network Inc.,Marquette,US,Michigan,49855,worker-17.sfj.censys-scanner.com,"46.5435,-87.3954",America/Detroit
918,162.142.125.29,1943,"AS398324 Censys, Inc.",Columbus,US,Ohio,43215,scanner-01.ch1.censys-scanner.com,"39.9612,-82.9988",America/New_York
919,5.196.239.182,1942,AS16276 OVH SAS,Sainte-Pazanne,FR,Pays de la Loire,44680,ip182.ip-5-196-239.eu,"47.1035,-1.8104",Europe/Paris
920,75.119.201.9,1942,"AS26347 New Dream Network, LLC",Portland,US,Oregon,97207,apache2-kant.10barrel.dreamhost.com,"45.5234,-122.6762",America/Los_Angeles
921,192.35.168.232,1941,AS237 Merit Network Inc.,Marquette,US,Michigan,49855,worker-14.sfj.censys-scanner.com,"46.5435,-87.3954",America/Detroit
922,74.120.14.67,1941,"AS398705 Censys, Inc.",Ashburn,US,Virginia,20149,scanner-11.ch1.censys-scanner.com,"39.0437,-77.4875",America/New_York
923,192.35.169.47,1940,AS237 Merit Network Inc.,Marquette,US,Michigan,49855,worker-17.sfj.censys-scanner.com,"46.5435,-87.3954",America/Detroit
924,162.142.125.68,1940,"AS398324 Censys, Inc.",Columbus,US,Ohio,43215,scanner-10.ch1.censys-scanner.com,"39.9612,-82.9988",America/New_York
925,10.72.2.61,1937,0,0,0,0,0,0,0,0
926,192.35.168.237,1936,AS237 Merit Network Inc.,Marquette,US,Michigan,49855,worker-14.sfj.censys-scanner.com,"46.5435,-87.3954",America/Detroit
927,192.35.169.38,1936,AS237 Merit Network Inc.,Marquette,US,Michigan,49855,worker-17.sfj.censys-scanner.com,"46.5435,-87.3954",America/Detroit
928,74.120.14.76,1934,"AS398705 Censys, Inc.",Ashburn,US,Virginia,20149,scanner-11.ch1.censys-scanner.com,"39.0437,-77.4875",America/New_York
929,192.35.168.231,1934,AS237 Merit Network Inc.,Marquette,US,Michigan,49855,worker-14.sfj.censys-scanner.com,"46.5435,-87.3954",America/Detroit
930,10.72.2.95,1933,0,0,0,0,0,0,0,0
931,185.25.207.157,1929,AS60798 Servereasy Srl,Sesto San Giovanni,IT,Lombardy,20099,157.207.25.185.servereasy.it,"45.5333,9.2258",Europe/Rome
932,74.120.14.70,1928,"AS398705 Censys, Inc.",Ashburn,US,Virginia,20149,scanner-11.ch1.censys-scanner.com,"39.0437,-77.4875",America/New_York
933,192.35.169.41,1928,AS237 Merit Network Inc.,Marquette,US,Michigan,49855,worker-17.sfj.censys-scanner.com,"46.5435,-87.3954",America/Detroit
934,199.231.233.157,1926,"AS36231 Tempest Hosting, LLC",Wickerham Manor-Fisher,US,Pennsylvania,15063,tempest.dominatevpn.com,"40.1775,-79.9068",America/New_York
935,192.35.168.228,1925,AS237 Merit Network Inc.,Marquette,US,Michigan,49855,worker-14.sfj.censys-scanner.com,"46.5435,-87.3954",America/Detroit
936,192.35.169.33,1925,AS237 Merit Network Inc.,Marquette,US,Michigan,49855,worker-17.sfj.censys-scanner.com,"46.5435,-87.3954",America/Detroit
937,192.35.168.230,1921,AS237 Merit Network Inc.,Marquette,US,Michigan,49855,worker-14.sfj.censys-scanner.com,"46.5435,-87.3954",America/Detroit
938,156.96.119.148,1919,AS46664 VolumeDrive,Philadelphia,US,Pennsylvania,19099,0,"39.9523,-75.1638",America/New_York
939,45.141.84.173,1916,AS206728 Media Land LLC,Saint Petersburg,RU,St.-Petersburg,190000,0,"59.9386,30.3141",Europe/Moscow
940,74.91.120.250,1915,AS12179 Internap Holding LLC,Charlestown,US,Indiana,47111,you-smell-courvix.packetguard.online,"38.4531,-85.6702",America/Kentucky/Louisville
941,134.255.240.167,1910,AS199610 marbis GmbH,Miami,US,Florida,33102,0,"25.7743,-80.1937",America/New_York
942,192.35.169.36,1908,AS237 Merit Network Inc.,Marquette,US,Michigan,49855,worker-17.sfj.censys-scanner.com,"46.5435,-87.3954",America/Detroit
943,192.35.169.44,1907,AS237 Merit Network Inc.,Marquette,US,Michigan,49855,worker-17.sfj.censys-scanner.com,"46.5435,-87.3954",America/Detroit
944,74.120.14.79,1906,"AS398705 Censys, Inc.",Ashburn,US,Virginia,20149,scanner-11.ch1.censys-scanner.com,"39.0437,-77.4875",America/New_York
945,66.151.138.194,1904,"AS32374 Nuclearfallout Enterprises, Inc.",San Jose,US,California,95134,v-66-151-138-194.unman-vds.inap-sj.nfoservers.com,"37.4087,-121.9406",America/Los_Angeles
946,74.120.14.66,1904,"AS398705 Censys, Inc.",Ashburn,US,Virginia,20149,scanner-11.ch1.censys-scanner.com,"39.0437,-77.4875",America/New_York
947,192.35.168.236,1901,AS237 Merit Network Inc.,Marquette,US,Michigan,49855,worker-14.sfj.censys-scanner.com,"46.5435,-87.3954",America/Detroit
948,162.248.91.251,1894,AS12179 Internap Holding LLC,Dallas,US,Texas,75270,v-162-248-91-251.managed-vds.inap-dallas.nfoservers.com,"32.7831,-96.8067",America/Chicago
949,192.35.168.226,1891,AS237 Merit Network Inc.,Marquette,US,Michigan,49855,worker-14.sfj.censys-scanner.com,"46.5435,-87.3954",America/Detroit
950,54.39.215.32,1889,AS16276 OVH SAS,Montréal,CA,Quebec,H2W,ip32.ip-54-39-215.net,"45.5088,-73.5878",America/Toronto
951,192.35.169.39,1886,AS237 Merit Network Inc.,Marquette,US,Michigan,49855,worker-17.sfj.censys-scanner.com,"46.5435,-87.3954",America/Detroit
952,192.35.168.227,1885,AS237 Merit Network Inc.,Marquette,US,Michigan,49855,worker-14.sfj.censys-scanner.com,"46.5435,-87.3954",America/Detroit
953,222.186.42.13,1885,AS23650 AS Number for CHINANET jiangsu province backbone,Shanghai,CN,Shanghai,0,0,"31.2222,121.4581",Asia/Shanghai
954,81.3.6.162,1883,AS24679 Hostway Deutschland GmbH,Hamburg,DE,Hamburg,20038,w1.tutanota.de,"53.5507,9.9930",Europe/Berlin
955,222.186.30.218,1883,AS23650 AS Number for CHINANET jiangsu province backbone,Shanghai,CN,Shanghai,0,0,"31.2222,121.4581",Asia/Shanghai
956,192.35.169.37,1876,AS237 Merit Network Inc.,Marquette,US,Michigan,49855,worker-17.sfj.censys-scanner.com,"46.5435,-87.3954",America/Detroit
957,51.75.167.98,1874,AS16276 OVH SAS,Lytchett Matravers,GB,England,BH16,ip98.ip-51-75-167.eu,"50.7583,-2.0781",Europe/London
958,73.82.38.150,1871,"AS7922 Comcast Cable Communications, LLC",Lawrenceville,US,Georgia,30046,c-73-82-38-150.hsd1.ga.comcast.net,"33.9562,-83.9880",America/New_York
959,10.72.2.115,1869,0,0,0,0,0,0,0,0
960,5.182.24.138,1868,AS43264 RTO-DON LLC,Shakhty,RU,Rostov,346500,0,"47.7091,40.2144",Europe/Moscow
961,149.56.79.250,1868,AS16276 OVH SAS,Toronto,CA,Ontario,M5N,ip250.ip-149-56-79.net,"43.7001,-79.4163",America/Toronto
962,196.75.253.50,1863,AS36903 Office National des Postes et Telecommunications ONPT (Maroc Telecom) / IAM,Rabat,MA,Rabat-Salé-Kénitra,0,0,"34.0132,-6.8326",Africa/Casablanca
963,45.146.164.212,1863,AS49505 OOO Network of data-centers Selectel,Moscow,RU,Moscow,101000,0,"55.7522,37.6156",Europe/Moscow
964,192.35.169.32,1860,AS237 Merit Network Inc.,Marquette,US,Michigan,49855,worker-17.sfj.censys-scanner.com,"46.5435,-87.3954",America/Detroit
965,51.79.149.120,1859,AS16276 OVH SAS,Singapore,SG,Singapore,048508,csgo.rage.pub,"1.2897,103.8501",Asia/Singapore
966,184.75.214.210,1858,AS32489 Amanah Tech Inc.,Toronto,CA,Ontario,M5N,0,"43.7001,-79.4163",America/Toronto
967,192.35.168.225,1858,AS237 Merit Network Inc.,Marquette,US,Michigan,49855,worker-14.sfj.censys-scanner.com,"46.5435,-87.3954",America/Detroit
968,74.120.14.64,1857,"AS398705 Censys, Inc.",Ashburn,US,Virginia,20149,scanner-11.ch1.censys-scanner.com,"39.0437,-77.4875",America/New_York
969,192.35.169.40,1852,AS237 Merit Network Inc.,Marquette,US,Michigan,49855,worker-17.sfj.censys-scanner.com,"46.5435,-87.3954",America/Detroit
970,192.35.169.43,1845,AS237 Merit Network Inc.,Marquette,US,Michigan,49855,worker-17.sfj.censys-scanner.com,"46.5435,-87.3954",America/Detroit
971,13.68.155.189,1840,AS8075 Microsoft Corporation,Hampden Sydney,US,Virginia,23960,0,"37.3058,-78.5462",America/New_York
972,17.57.146.21,1839,AS714 Apple Inc.,Cupertino,US,California,95014,0,"37.3230,-122.0322",America/Los_Angeles
973,107.10.1.96,1837,AS10796 Charter Communications Inc,Doylestown,US,Ohio,44230,cpe-107-10-1-96.neo.res.rr.com,"40.9701,-81.6965",America/New_York
974,58.56.102.171,1836,AS4134 CHINANET-BACKBONE,Hangzhou,CN,Zhejiang,0,0,"30.2936,120.1614",Asia/Shanghai
975,13.68.154.246,1836,AS8075 Microsoft Corporation,Hampden Sydney,US,Virginia,23960,0,"37.3058,-78.5462",America/New_York
976,51.15.243.85,1834,AS12876 ONLINE S.A.S.,Paris,FR,Île-de-France,75000,mx.check-host.net,"48.8534,2.3488",Europe/Paris
977,192.35.168.234,1827,AS237 Merit Network Inc.,Marquette,US,Michigan,49855,worker-14.sfj.censys-scanner.com,"46.5435,-87.3954",America/Detroit
978,192.35.169.45,1820,AS237 Merit Network Inc.,Marquette,US,Michigan,49855,worker-17.sfj.censys-scanner.com,"46.5435,-87.3954",America/Detroit
979,148.72.133.152,1819,"AS30083 GoDaddy.com, LLC",St. Louis,US,Missouri,63150,ip-148-72-133-152.ip.secureserver.net,"38.6273,-90.1979",America/Chicago
980,118.161.104.102,1819,AS3462 Data Communication Business Group,Taoyuan City,TW,Taiwan,0,118-161-104-102.dynamic-ip.hinet.net,"24.9937,121.2970",Asia/Taipei
981,45.129.33.167,1817,AS202425 IP Volume inc,Berngau,DE,Bavaria,92361,0,"49.2500,11.4000",Europe/Berlin
982,185.193.90.238,1816,0,Krasnoobsk,RU,Novosibirsk Oblast,630105,0,"54.8490,83.1072",Asia/Novosibirsk
983,80.82.65.80,1809,AS202425 IP Volume inc,Amsterdam,NL,North Holland,1012,tg18.pectol.pl,"52.3740,4.8897",Europe/Amsterdam
984,104.27.137.224,1807,"AS13335 Cloudflare, Inc.",San Francisco,US,California,94107,0,"37.7621,-122.3971",America/Los_Angeles
985,10.72.2.102,1804,0,0,0,0,0,0,0,0
986,192.223.26.35,1803,"AS14586 Nuclearfallout Enterprises, Inc.",Castle Hayne,US,North Carolina,28429,c-192-223-26-35.premium-chicago.nfoservers.com,"34.3557,-77.9000",America/New_York
987,172.105.89.161,1800,"AS63949 Linode, LLC",Frankfurt am Main,DE,Hesse,60311,implant-scanner-victims-will-be-notified.threatsinkhole.com,"50.1155,8.6842",Europe/Berlin
988,45.134.26.222,1799,AS49505 OOO Network of data-centers Selectel,Moscow,RU,Moscow,101000,0,"55.7522,37.6156",Europe/Moscow
989,51.158.161.10,1794,AS12876 ONLINE S.A.S.,Haarlem,NL,North Holland,2011,10-161-158-51.instances.scw.cloud,"52.3808,4.6368",Europe/Amsterdam
990,45.148.10.28,1793,AS48090 PPTECHNOLOGY LIMITED,Amsterdam,NL,North Holland,1012,0,"52.3740,4.8897",Europe/Amsterdam
991,158.69.11.133,1790,AS16276 OVH SAS,Montréal,CA,Quebec,H3A,fuaming.xyz,"45.5040,-73.5747",America/Toronto
992,103.145.13.10,1786,AS213371 ABC Consultancy,Zwolle,NL,Overijssel,8035,0,"52.5538,6.1537",Europe/Amsterdam
993,97.119.152.153,1784,"AS209 CenturyLink Communications, LLC",Omaha,US,Nebraska,68101,97-119-152-153.omah.qwest.net,"41.2563,-95.9404",America/Chicago
994,13.232.188.145,1783,"AS16509 Amazon.com, Inc.",Mumbai,IN,Maharashtra,400070,ec2-13-232-188-145.ap-south-1.compute.amazonaws.com,"19.0728,72.8826",Asia/Kolkata
995,45.146.165.39,1776,AS49505 OOO Network of data-centers Selectel,Moscow,RU,Moscow,101000,0,"55.7522,37.6156",Europe/Moscow
